[
  {
    "id": 10209,
    "cities_id": 117,
    "url_name": "الكاظمية",
    "name": "الكاظمية‎‎",
    "name_en": "Kadhimiya",
    "state_id": 131,
    "order": 9142,
    "order_en": 117,
    "status" :1,
    "cost" :50
  },
  {
    "id": 10211,
    "cities_id": 2,
    "url_name": "أبو-دشير",
    "name": "أبو دشير",
    "name_en": "Abu Dshir",
    "state_id": 131,
    "order": 9143,
    "order_en": 2,
    "status" :1,
    "cost" :50
  },
  {
    "id": 10213,
    "cities_id": 1,
    "url_name": "9-نيسان",
    "name": "9 نيسان",
    "name_en": "9 Nissan",
    "state_id": 131,
    "order": 9144,
    "order_en": 1,
    "status" :1,
    "cost" :50
  },
  {
    "id": 10215,
    "cities_id": 6,
    "url_name": "الأعظمية",
    "name": "الأعظمية",
    "name_en": "Adamiyah",
    "state_id": 131,
    "order": 9145,
    "order_en": 6,
    "status" :1,
    "cost" :50
  },
  {
    "id": 10217,
    "cities_id": 75,
    "url_name": "البتاوين",
    "name": "البتاوين",
    "name_en": "Bataween",
    "state_id": 131,
    "order": 9146,
    "order_en": 75,
    "status" :1,
    "cost" :50
  },
  {
    "id": 10219,
    "cities_id": 10,
    "url_name": "البلديات",
    "name": "البلديات",
    "name_en": "Al Baladiyat",
    "state_id": 131,
    "order": 9147,
    "order_en": 10,
    "status" :1,
    "cost" :50
  },
  {
    "id": 10221,
    "cities_id": 77,
    "url_name": "البنوك",
    "name": "البنوك",
    "name_en": "Binouk",
    "state_id": 131,
    "order": 9148,
    "order_en": 77,
    "status" :1,
    "cost" :50
  },
  {
    "id": 10223,
    "cities_id": 76,
    "url_name": "البياع",
    "name": "البياع",
    "name_en": "Bayaa",
    "state_id": 131,
    "order": 9149,
    "order_en": 76,
    "status" :1,
    "cost" :50
  },
  {
    "id": 10225,
    "cities_id": 101,
    "url_name": "الحارثية",
    "name": "الحارثية",
    "name_en": "Harthiya",
    "state_id": 131,
    "order": 9150,
    "order_en": 101,
    "status" :1,
    "cost" :50
  },
  {
    "id": 10227,
    "cities_id": 106,
    "url_name": "الحرية",
    "name": "الحرية",
    "name_en": "Hurriya",
    "state_id": 131,
    "order": 9151,
    "order_en": 106,
    "status" :1,
    "cost" :50
  },
  {
    "id": 10229,
    "cities_id": 105,
    "url_name": "الحسينية",
    "name": "الحسينية",
    "name_en": "Hosseinia",
    "state_id": 131,
    "order": 9152,
    "order_en": 105,
    "status" :1,
    "cost" :50
  },
  {
    "id": 10231,
    "cities_id": 110,
    "url_name": "الجادرية",
    "name": "الجادرية",
    "name_en": "Jadriyah",
    "state_id": 131,
    "order": 9153,
    "order_en": 110,
    "status" :1,
    "cost" :50
  },
  {
    "id": 10233,
    "cities_id": 83,
    "url_name": "الدورة",
    "name": "الدورة",
    "name_en": "Dora",
    "state_id": 131,
    "order": 9154,
    "order_en": 83,
    "status" :1,
    "cost" :50
  },
  {
    "id": 10235,
    "cities_id": 82,
    "url_name": "الدولعي",
    "name": "الدولعي",
    "name_en": "Doli'e",
    "state_id": 131,
    "order": 9155,
    "order_en": 82,
    "status" :1,
    "cost" :50
  },
  {
    "id": 10237,
    "cities_id": 162,
    "url_name": "السيدية",
    "name": "السيدية",
    "name_en": "Saidiya",
    "state_id": 131,
    "order": 9156,
    "order_en": 162,
    "status" :1,
    "cost" :50
  },
  {
    "id": 10239,
    "cities_id": 23,
    "url_name": "الشرطة",
    "name": "الشرطة",
    "name_en": "Al shorta",
    "state_id": 131,
    "order": 9157,
    "order_en": 23,
    "status" :1,
    "cost" :50
  },
  {
    "id": 10241,
    "cities_id": 16,
    "url_name": "الراشدية",
    "name": "الراشدية",
    "name_en": "Al Rashidiya",
    "state_id": 131,
    "order": 9158,
    "order_en": 16,
    "status" :1,
    "cost" :50
  },
  {
    "id": 10243,
    "cities_id": 182,
    "url_name": "الزعفرانية",
    "name": "الزعفرانية",
    "name_en": "Za'franiya",
    "state_id": 131,
    "order": 9159,
    "order_en": 182,
    "status" :1,
    "cost" :50
  },
  {
    "id": 10245,
    "cities_id": 86,
    "url_name": "الشعب",
    "name": "الشعب",
    "name_en": "Elshaab",
    "state_id": 131,
    "order": 9160,
    "order_en": 86,
    "status" :1,
    "cost" :50
  },
  {
    "id": 10247,
    "cities_id": 87,
    "url_name": "الشعلة",
    "name": "الشعلة",
    "name_en": "Elshoala",
    "state_id": 131,
    "order": 9161,
    "order_en": 87,
    "status" :1,
    "cost" :50
  },
  {
    "id": 10249,
    "cities_id": 85,
    "url_name": "الشيخ-عمر",
    "name": "الشيخ عمر",
    "name_en": "El-Shaikh Omar",
    "state_id": 131,
    "order": 9162,
    "order_en": 85,
    "status" :1,
    "cost" :50
  },
  {
    "id": 10251,
    "cities_id": 17,
    "url_name": "الصالحية",
    "name": "الصالحية",
    "name_en": "Al Salhiah",
    "state_id": 131,
    "order": 9163,
    "order_en": 17,
    "status" :1,
    "cost" :50
  },
  {
    "id": 10253,
    "cities_id": 56,
    "url_name": "الصليخ",
    "name": "الصليخ",
    "name_en": "Al-Sulaikh",
    "state_id": 131,
    "order": 9164,
    "order_en": 56,
    "status" :1,
    "cost" :50
  },
  {
    "id": 10255,
    "cities_id": 63,
    "url_name": "العامرية",
    "name": "العامرية",
    "name_en": "Ameria",
    "state_id": 131,
    "order": 9165,
    "order_en": 63,
    "status" :1,
    "cost" :50
  },
  {
    "id": 10257,
    "cities_id": 168,
    "url_name": "العطيفية",
    "name": "العطيفية",
    "name_en": "Taifiya",
    "state_id": 131,
    "order": 9166,
    "order_en": 168,
    "status" :1,
    "cost" :50
  },
  {
    "id": 10259,
    "cities_id": 91,
    "url_name": "الغدير",
    "name": "الغدير",
    "name_en": "Ghadeer",
    "state_id": 131,
    "order": 9167,
    "order_en": 91,
    "status" :1,
    "cost" :50
  },
  {
    "id": 10261,
    "cities_id": 92,
    "url_name": "الغزالية",
    "name": "الغزالية",
    "name_en": "Ghazaliya",
    "state_id": 131,
    "order": 9168,
    "order_en": 92,
    "status" :1,
    "cost" :50
  },
  {
    "id": 10263,
    "cities_id": 90,
    "url_name": "الفضلية",
    "name": "الفضلية",
    "name_en": "Fudhaliyah",
    "state_id": 131,
    "order": 9169,
    "order_en": 90,
    "status" :1,
    "cost" :50
  },
  {
    "id": 10265,
    "cities_id": 146,
    "url_name": "القادسية",
    "name": "القادسية",
    "name_en": "Qadisiyyah",
    "state_id": 131,
    "order": 9170,
    "order_en": 146,
    "status" :1,
    "cost" :50
  },
  {
    "id": 10267,
    "cities_id": 120,
    "url_name": "الكرادة",
    "name": "الكرادة",
    "name_en": "Karadah",
    "state_id": 131,
    "order": 9171,
    "order_en": 120,
    "status" :1,
    "cost" :50
  },
  {
    "id": 10269,
    "cities_id": 131,
    "url_name": "المحمودية",
    "name": "المحمودية",
    "name_en": "Mahmudiyah",
    "state_id": 131,
    "order": 9172,
    "order_en": 131,
    "status" :1,
    "cost" :50
  },
  {
    "id": 10271,
    "cities_id": 129,
    "url_name": "المدائن",
    "name": "المدائن",
    "name_en": "Madain",
    "state_id": 131,
    "order": 9173,
    "order_en": 129,
    "status" :1,
    "cost" :50
  },
  {
    "id": 10273,
    "cities_id": 134,
    "url_name": "المسبح",
    "name": "المسبح",
    "name_en": "Masbah",
    "state_id": 131,
    "order": 9174,
    "order_en": 134,
    "status" :1,
    "cost" :50
  },
  {
    "id": 10275,
    "cities_id": 135,
    "url_name": "المشتل",
    "name": "المشتل",
    "name_en": "Mashtal",
    "state_id": 131,
    "order": 9175,
    "order_en": 135,
    "status" :1,
    "cost" :50
  },
  {
    "id": 10277,
    "cities_id": 133,
    "url_name": "المنصور",
    "name": "المنصور",
    "name_en": "Mansour",
    "state_id": 131,
    "order": 9176,
    "order_en": 133,
    "status" :1,
    "cost" :50
  },
  {
    "id": 10279,
    "cities_id": 141,
    "url_name": "النهروان",
    "name": "النهروان",
    "name_en": "Nahrawan",
    "state_id": 131,
    "order": 9177,
    "order_en": 141,
    "status" :1,
    "cost" :50
  },
  {
    "id": 10281,
    "cities_id": 179,
    "url_name": "الوزيرية",
    "name": "الوزيرية",
    "name_en": "Wazireya",
    "state_id": 131,
    "order": 9178,
    "order_en": 179,
    "status" :1,
    "cost" :50
  },
  {
    "id": 10283,
    "cities_id": 178,
    "url_name": "الوشاش",
    "name": "الوشاش",
    "name_en": "Washash",
    "state_id": 131,
    "order": 9179,
    "order_en": 178,
    "status" :1,
    "cost" :50
  },
  {
    "id": 10285,
    "cities_id": 180,
    "url_name": "اليرموك",
    "name": "اليرموك",
    "name_en": "Yarmouk",
    "state_id": 131,
    "order": 9180,
    "order_en": 180,
    "status" :1,
    "cost" :50
  },
  {
    "id": 10287,
    "cities_id": 72,
    "url_name": "باب-شرقي",
    "name": "باب شرقي",
    "name_en": "Bab Sharqi",
    "state_id": 131,
    "order": 9181,
    "order_en": 72,
    "status" :1,
    "cost" :50
  },
  {
    "id": 10289,
    "cities_id": 109,
    "url_name": "بغداد-الجديدة",
    "name": "بغداد الجديدة",
    "name_en": "Jadeeda",
    "state_id": 131,
    "order": 9182,
    "order_en": 109,
    "status" :1,
    "cost" :50
  },
  {
    "id": 10291,
    "cities_id": 164,
    "url_name": "بوب-الشام",
    "name": "بوب الشام",
    "name_en": "Sham",
    "state_id": 131,
    "order": 9183,
    "order_en": 164,
    "status" :1,
    "cost" :50
  },
  {
    "id": 10293,
    "cities_id": 115,
    "url_name": "جسر-ديالى",
    "name": "جسر ديالى",
    "name_en": "Jisr Diyala",
    "state_id": 131,
    "order": 9184,
    "order_en": 115,
    "status" :1,
    "cost" :50
  },
  {
    "id": 10295,
    "cities_id": 59,
    "url_name": "الإعلام",
    "name": "الإعلام",
    "name_en": "Alam",
    "state_id": 131,
    "order": 9185,
    "order_en": 59,
    "status" :1,
    "cost" :50
  },
  {
    "id": 10297,
    "cities_id": 20,
    "url_name": "التراث",
    "name": "التراث",
    "name_en": "Al Turath",
    "state_id": 131,
    "order": 9186,
    "order_en": 20,
    "status" :1,
    "cost" :50
  },
  {
    "id": 10299,
    "cities_id": 177,
    "url_name": "الجامعة",
    "name": "الجامعة",
    "name_en": "University",
    "state_id": 131,
    "order": 9187,
    "order_en": 177,
    "status" :1,
    "cost" :50
  },
  {
    "id": 10301,
    "cities_id": 114,
    "url_name": "الجهاد",
    "name": "الجهاد",
    "name_en": "Jihad",
    "state_id": 131,
    "order": 9188,
    "order_en": 114,
    "status" :1,
    "cost" :50
  },
  {
    "id": 10303,
    "cities_id": 126,
    "url_name": "الخضراء",
    "name": "الخضراء",
    "name_en": "Khadra",
    "state_id": 131,
    "order": 9189,
    "order_en": 126,
    "status" :1,
    "cost" :50
  },
  {
    "id": 10305,
    "cities_id": 9,
    "url_name": "العامل",
    "name": "العامل",
    "name_en": "Al Aml",
    "state_id": 131,
    "order": 9190,
    "order_en": 9,
    "status" :1,
    "cost" :50
  },
  {
    "id": 10307,
    "cities_id": 8,
    "url_name": "العدل",
    "name": "العدل",
    "name_en": "Al Adel",
    "state_id": 131,
    "order": 9191,
    "order_en": 8,
    "status" :1,
    "cost" :50
  },
  {
    "id": 10309,
    "cities_id": 12,
    "url_name": "الكندي",
    "name": "الكندي",
    "name_en": "Al Kindi",
    "state_id": 131,
    "order": 9192,
    "order_en": 12,
    "status" :1,
    "cost" :50
  },
  {
    "id": 10311,
    "cities_id": 130,
    "url_name": "المهدية",
    "name": "المهدية",
    "name_en": "Mahdia",
    "state_id": 131,
    "order": 9193,
    "order_en": 130,
    "status" :1,
    "cost" :50
  },
  {
    "id": 10313,
    "cities_id": 142,
    "url_name": "أور",
    "name": "أور",
    "name_en": "Our",
    "state_id": 131,
    "order": 9194,
    "order_en": 142,
    "status" :1,
    "cost" :50
  },
  {
    "id": 10315,
    "cities_id": 103,
    "url_name": "حطين",
    "name": "حطين",
    "name_en": "Hettin",
    "state_id": 131,
    "order": 9195,
    "order_en": 103,
    "status" :1,
    "cost" :50
  },
  {
    "id": 10317,
    "cities_id": 183,
    "url_name": "زيونة",
    "name": "زيونة",
    "name_en": "Zayona",
    "state_id": 131,
    "order": 9196,
    "order_en": 183,
    "status" :1,
    "cost" :50
  },
  {
    "id": 10319,
    "cities_id": 4,
    "url_name": "شارع-أبو-نؤاس",
    "name": "شارع أبو نؤاس",
    "name_en": "Abu Nuw'as St",
    "state_id": 131,
    "order": 9197,
    "order_en": 4,
    "status" :1,
    "cost" :50
  },
  {
    "id": 10321,
    "cities_id": 159,
    "url_name": "شارع-السعدون",
    "name": "شارع السعدون",
    "name_en": "Sadoun Street",
    "state_id": 131,
    "order": 9198,
    "order_en": 159,
    "status" :1,
    "cost" :50
  },
  {
    "id": 10323,
    "cities_id": 136,
    "url_name": "شارع-المغرب",
    "name": "شارع المغرب",
    "name_en": "Meghreb St",
    "state_id": 131,
    "order": 9199,
    "order_en": 136,
    "status" :1,
    "cost" :50
  },
  {
    "id": 10325,
    "cities_id": 184,
    "url_name": "شارع-النضال",
    "name": "شارع النضال",
    "name_en": "nedal street",
    "state_id": 131,
    "order": 9200,
    "order_en": 184,
    "status" :1,
    "cost" :50
  },
  {
    "id": 10327,
    "cities_id": 99,
    "url_name": "شارع-حيفا",
    "name": "شارع حيفا",
    "name_en": "Haifa St",
    "state_id": 131,
    "order": 9201,
    "order_en": 99,
    "status" :1,
    "cost" :50
  },
  {
    "id": 10329,
    "cities_id": 89,
    "url_name": "شارع-فلسطين",
    "name": "شارع فلسطين",
    "name_en": "Falastin St",
    "state_id": 131,
    "order": 9202,
    "order_en": 89,
    "status" :1,
    "cost" :50
  },
  {
    "id": 10333,
    "cities_id": 78,
    "url_name": "كمب-سارة",
    "name": "كمب سارة",
    "name_en": "Camp Sarah",
    "state_id": 131,
    "order": 9204,
    "order_en": 78,
    "status" :1,
    "cost" :50
  },
  {
    "id": 10335,
    "cities_id": 160,
    "url_name": "مدينة-الصدر",
    "name": "مدينة الصدر",
    "name_en": "Sadr City",
    "state_id": 131,
    "order": 9205,
    "order_en": 160,
    "status" :1,
    "cost" :50
  },
  {
    "id": 10337,
    "cities_id": 165,
    "url_name": "الشماسية",
    "name": "الشماسية",
    "name_en": "Shimasiyah",
    "state_id": 131,
    "order": 9206,
    "order_en": 165,
    "status" :1,
    "cost" :50
  },
  {
    "id": 10339,
    "cities_id": 11,
    "url_name": "الضباط",
    "name": "الضباط",
    "name_en": "Al Dubat",
    "state_id": 131,
    "order": 9207,
    "order_en": 11,
    "status" :1,
    "cost" :50
  },
  {
    "id": 10341,
    "cities_id": 153,
    "url_name": "الرفاق",
    "name": "الرفاق",
    "name_en": "Refak",
    "state_id": 131,
    "order": 9208,
    "order_en": 153,
    "status" :1,
    "cost" :50
  },
  {
    "id": 10343,
    "cities_id": 124,
    "url_name": "الكسرة",
    "name": "الكسرة",
    "name_en": "Kasra",
    "state_id": 131,
    "order": 9209,
    "order_en": 124,
    "status" :1,
    "cost" :50
  },
  {
    "id": 10345,
    "cities_id": 156,
    "url_name": "سبع-ابكار",
    "name": "سبع ابكار",
    "name_en": "Saba' Abkar",
    "state_id": 131,
    "order": 9210,
    "order_en": 156,
    "status" :1,
    "cost" :50
  },
  {
    "id": 10347,
    "cities_id": 154,
    "url_name": "الرصافة",
    "name": "الرصافة",
    "name_en": "Rusafa",
    "state_id": 131,
    "order": 9211,
    "order_en": 154,
    "status" :1,
    "cost" :50
  },
  {
    "id": 10349,
    "cities_id": 93,
    "url_name": "الكريعات",
    "name": "الكريعات",
    "name_en": "Gherai'at",
    "state_id": 131,
    "order": 9212,
    "order_en": 93,
    "status" :1,
    "cost" :50
  },
  {
    "id": 10351,
    "cities_id": 148,
    "url_name": "الربيع",
    "name": "الربيع",
    "name_en": "Rabea",
    "state_id": 131,
    "order": 9213,
    "order_en": 148,
    "status" :1,
    "cost" :50
  },
  {
    "id": 10353,
    "cities_id": 88,
    "url_name": "الفحامة",
    "name": "الفحامة",
    "name_en": "Fahhama",
    "state_id": 131,
    "order": 9214,
    "order_en": 88,
    "status" :1,
    "cost" :50
  },
  {
    "id": 10355,
    "cities_id": 22,
    "url_name": "حي-الزهور",
    "name": "حي الزهور",
    "name_en": "Al Zahoor",
    "state_id": 131,
    "order": 9215,
    "order_en": 22,
    "status" :1,
    "cost" :50
  },
  {
    "id": 10357,
    "cities_id": 21,
    "url_name": "الوحدة",
    "name": "الوحدة",
    "name_en": "Al Wihda",
    "state_id": 131,
    "order": 9216,
    "order_en": 21,
    "status" :1,
    "cost" :50
  },
  {
    "id": 10361,
    "cities_id": 104,
    "url_name": "هور-رجب",
    "name": "هور رجب",
    "name_en": "Hor Rajab",
    "state_id": 131,
    "order": 9218,
    "order_en": 104,
    "status" :1,
    "cost" :50
  },
  {
    "id": 10363,
    "cities_id": 69,
    "url_name": "الآثوريين",
    "name": "الآثوريين",
    "name_en": "Assyrians",
    "state_id": 131,
    "order": 9219,
    "order_en": 69,
    "status" :1,
    "cost" :50
  },
  {
    "id": 10365,
    "cities_id": 149,
    "url_name": "الرضوانية",
    "name": "الرضوانية",
    "name_en": "Radwaniyah",
    "state_id": 131,
    "order": 9220,
    "order_en": 149,
    "status" :1,
    "cost" :50
  },
  {
    "id": 10367,
    "cities_id": 174,
    "url_name": "الطوبجي",
    "name": "الطوبجي",
    "name_en": "Tobji",
    "state_id": 131,
    "order": 9221,
    "order_en": 174,
    "status" :1,
    "cost" :50
  },
  {
    "id": 10369,
    "cities_id": 95,
    "url_name": "الهبنة",
    "name": "الهبنة",
    "name_en": "Habna",
    "state_id": 131,
    "order": 9222,
    "order_en": 95,
    "status" :1,
    "cost" :50
  },
  {
    "id": 10371,
    "cities_id": 111,
    "url_name": "الجمبلاطية",
    "name": "الجمبلاطية",
    "name_en": "Jambalata",
    "state_id": 131,
    "order": 9223,
    "order_en": 111,
    "status" :1,
    "cost" :50
  },
  {
    "id": 10373,
    "cities_id": 127,
    "url_name": "الخطيب",
    "name": "الخطيب",
    "name_en": "Khatib",
    "state_id": 131,
    "order": 9224,
    "order_en": 127,
    "status" :1,
    "cost" :50
  },
  {
    "id": 10375,
    "cities_id": 37,
    "url_name": "الميكانيك",
    "name": "الميكانيك",
    "name_en": "Al-Mekanek",
    "state_id": 131,
    "order": 9225,
    "order_en": 37,
    "status" :1,
    "cost" :50
  },
  {
    "id": 10377,
    "cities_id": 150,
    "url_name": "راغبة-خاتون",
    "name": "راغبة خاتون",
    "name_en": "Raghibat Khatoun",
    "state_id": 131,
    "order": 9226,
    "order_en": 150,
    "status" :1,
    "cost" :50
  },
  {
    "id": 10379,
    "cities_id": 15,
    "url_name": "شارع-الرشيد",
    "name": "شارع الرشيد",
    "name_en": "Al Rasheed St",
    "state_id": 131,
    "order": 9227,
    "order_en": 15,
    "status" :1,
    "cost" :50
  },
  {
    "id": 10381,
    "cities_id": 139,
    "url_name": "شارع-المتنبي",
    "name": "شارع المتنبي",
    "name_en": "Mutanabi Street",
    "state_id": 131,
    "order": 9228,
    "order_en": 139,
    "status" :1,
    "cost" :50
  },
  {
    "id": 10383,
    "cities_id": 67,
    "url_name": "عرب-جبور",
    "name": "عرب جبور",
    "name_en": "Arab Ejbur",
    "state_id": 131,
    "order": 9229,
    "order_en": 67,
    "status" :1,
    "cost" :50
  },
  {
    "id": 10918,
    "cities_id": 3,
    "url_name": "ابوغريب",
    "name": "ابوغريب",
    "name_en": "Abu Ghraib",
    "state_id": 131,
    "order": 9516,
    "order_en": 3,
    "status" :1,
    "cost" :50
  },
  {
    "id": 10922,
    "cities_id": 33,
    "url_name": "حي-الحسين",
    "name": "حي الحسين",
    "name_en": "Al-Hussein",
    "state_id": 131,
    "order": 9518,
    "order_en": 33,
    "status" :1,
    "cost" :50
  },
  {
    "id": 12766,
    "cities_id": 52,
    "url_name": "الشباب",
    "name": "الشباب",
    "name_en": "Al-Shabab",
    "state_id": 131,
    "order": 9519,
    "order_en": 52,
    "status" :1,
    "cost" :50
  },
  {
    "id": 12914,
    "cities_id": 58,
    "url_name": "العبيدي",
    "name": "العبيدي",
    "name_en": "Al-Ubaidi",
    "state_id": 131,
    "order": 9520,
    "order_en": 58,
    "status" :1,
    "cost" :50
  },
  {
    "id": 12916,
    "cities_id": 45,
    "url_name": "الرشاد",
    "name": "الرشاد",
    "name_en": "Al-Rashad",
    "state_id": 131,
    "order": 9521,
    "order_en": 45,
    "status" :1,
    "cost" :50
  },
  {
    "id": 12918,
    "cities_id": 122,
    "url_name": "الكرامة",
    "name": "الكرامة",
    "name_en": "Karama",
    "state_id": 131,
    "order": 9522,
    "order_en": 122,
    "status" :1,
    "cost" :50
  },
  {
    "id": 12922,
    "cities_id": 119,
    "url_name": "كميرة",
    "name": "كميرة",
    "name_en": "Kamirh",
    "state_id": 131,
    "order": 9524,
    "order_en": 119,
    "status" :1,
    "cost" :50
  },
  {
    "id": 12924,
    "cities_id": 102,
    "url_name": "حي-النصر",
    "name": "حي النصر",
    "name_en": "Hay-Al Nassr",
    "state_id": 131,
    "order": 9525,
    "order_en": 102,
    "status" :1,
    "cost" :50
  },
  {
    "id": 12926,
    "cities_id": 171,
    "url_name": "الطالبية",
    "name": "الطالبية",
    "name_en": "Talbiyah",
    "state_id": 131,
    "order": 9526,
    "order_en": 171,
    "status" :1,
    "cost" :50
  },
  {
    "id": 12928,
    "cities_id": 97,
    "url_name": "حي-الجوادين",
    "name": "حي الجوادين",
    "name_en": "Hai Al-Jawadeen",
    "state_id": 131,
    "order": 9527,
    "order_en": 97,
    "status" :1,
    "cost" :50
  },
  {
    "id": 12930,
    "cities_id": 140,
    "url_name": "شارع-المطبق",
    "name": "شارع المطبق",
    "name_en": "Mutbak st.",
    "state_id": 131,
    "order": 9528,
    "order_en": 140,
    "status" :1,
    "cost" :50
  },
  {
    "id": 12932,
    "cities_id": 163,
    "url_name": "سلمان-باك",
    "name": "سلمان باك",
    "name_en": "Salman Pak",
    "state_id": 131,
    "order": 9529,
    "order_en": 163,
    "status" :1,
    "cost" :50
  },
  {
    "id": 12934,
    "cities_id": 157,
    "url_name": "سبع-البور",
    "name": "سبع البور",
    "name_en": "Sabaa Al Bour",
    "state_id": 131,
    "order": 9530,
    "order_en": 157,
    "status" :1,
    "cost" :50
  },
  {
    "id": 12936,
    "cities_id": 151,
    "url_name": "الرحمانية",
    "name": "الرحمانية",
    "name_en": "Rahmaniya",
    "state_id": 131,
    "order": 9531,
    "order_en": 151,
    "status" :1,
    "cost" :50
  },
  {
    "id": 12938,
    "cities_id": 44,
    "url_name": "حي-الرحمة",
    "name": "حي الرحمة",
    "name_en": "Al-Rahma",
    "state_id": 131,
    "order": 9532,
    "order_en": 44,
    "status" :1,
    "cost" :50
  },
  {
    "id": 12940,
    "cities_id": 74,
    "url_name": "البساتين",
    "name": "البساتين",
    "name_en": "Basateen",
    "state_id": 131,
    "order": 9533,
    "order_en": 74,
    "status" :1,
    "cost" :50
  },
  {
    "id": 12942,
    "cities_id": 112,
    "url_name": "جميلة",
    "name": "جميلة",
    "name_en": "Jamila",
    "state_id": 131,
    "order": 9534,
    "order_en": 112,
    "status" :1,
    "cost" :50
  },
  {
    "id": 12944,
    "cities_id": 175,
    "url_name": "حي-تونس",
    "name": "حي تونس",
    "name_en": "Tunis",
    "state_id": 131,
    "order": 9535,
    "order_en": 175,
    "status" :1,
    "cost" :50
  },
  {
    "id": 12946,
    "cities_id": 38,
    "url_name": "حي-المواصلات",
    "name": "حي المواصلات",
    "name_en": "Al-Mouasalat",
    "state_id": 131,
    "order": 9536,
    "order_en": 38,
    "status" :1,
    "cost" :50
  },
  {
    "id": 12948,
    "cities_id": 137,
    "url_name": "حي-المعلمين",
    "name": "حي المعلمين",
    "name_en": "Mua'lmeen",
    "state_id": 131,
    "order": 9537,
    "order_en": 137,
    "status" :1,
    "cost" :50
  },
  {
    "id": 12950,
    "cities_id": 64,
    "url_name": "حي-الأمين",
    "name": "حي الأمين",
    "name_en": "Amin",
    "state_id": 131,
    "order": 9538,
    "order_en": 64,
    "status" :1,
    "cost" :50
  },
  {
    "id": 12952,
    "cities_id": 147,
    "url_name": "حي-القاهرة",
    "name": "حي القاهرة",
    "name_en": "Qahira",
    "state_id": 131,
    "order": 9539,
    "order_en": 147,
    "status" :1,
    "cost" :50
  },
  {
    "id": 12954,
    "cities_id": 31,
    "url_name": "حي-الفرات",
    "name": "حي الفرات",
    "name_en": "Al-Furat",
    "state_id": 131,
    "order": 9540,
    "order_en": 31,
    "status" :1,
    "cost" :50
  },
  {
    "id": 12956,
    "cities_id": 25,
    "url_name": "الحي-العسكري",
    "name": "الحي العسكري",
    "name_en": "Al-Askri",
    "state_id": 131,
    "order": 9541,
    "order_en": 25,
    "status" :1,
    "cost" :50
  },
  {
    "id": 12958,
    "cities_id": 47,
    "url_name": "حي-الرسالة-الثانية",
    "name": "حي الرسالة الثانية",
    "name_en": "Al-Risala Al-Thaniya",
    "state_id": 131,
    "order": 9542,
    "order_en": 47,
    "status" :1,
    "cost" :50
  },
  {
    "id": 12960,
    "cities_id": 27,
    "url_name": "حي-البتول",
    "name": "حي البتول",
    "name_en": "Al-Batool",
    "state_id": 131,
    "order": 9543,
    "order_en": 27,
    "status" :1,
    "cost" :50
  },
  {
    "id": 12962,
    "cities_id": 116,
    "url_name": "جرف-النداف",
    "name": "جرف النداف",
    "name_en": "Jurf Naddaf",
    "state_id": 131,
    "order": 9544,
    "order_en": 116,
    "status" :1,
    "cost" :50
  },
  {
    "id": 12964,
    "cities_id": 57,
    "url_name": "الثعالبة",
    "name": "الثعالبة",
    "name_en": "Al-Tha'aliba",
    "state_id": 131,
    "order": 9545,
    "order_en": 57,
    "status" :1,
    "cost" :50
  },
  {
    "id": 12966,
    "cities_id": 170,
    "url_name": "التاجيات",
    "name": "التاجيات",
    "name_en": "Tajiyat",
    "state_id": 131,
    "order": 9546,
    "order_en": 170,
    "status" :1,
    "cost" :50
  },
  {
    "id": 12968,
    "cities_id": 70,
    "url_name": "باب-المعظم",
    "name": "باب المعظم",
    "name_en": "Bab Al Moatham",
    "state_id": 131,
    "order": 9547,
    "order_en": 70,
    "status" :1,
    "cost" :50
  },
  {
    "id": 12970,
    "cities_id": 176,
    "url_name": "أم-الكبر-والغزلان",
    "name": "أم الكبر والغزلان",
    "name_en": "Um Al-Kuber Wa Al-Gazlan",
    "state_id": 131,
    "order": 9548,
    "order_en": 176,
    "status" :1,
    "cost" :50
  },
  {
    "id": 12972,
    "cities_id": 181,
    "url_name": "اليوسفية",
    "name": "اليوسفية",
    "name_en": "Yusufiyah",
    "state_id": 131,
    "order": 9549,
    "order_en": 181,
    "status" :1,
    "cost" :50
  },
  {
    "id": 12974,
    "cities_id": 13,
    "url_name": "الملحانية",
    "name": "الملحانية",
    "name_en": "Al Mailhania",
    "state_id": 131,
    "order": 9550,
    "order_en": 13,
    "status" :1,
    "cost" :50
  },
  {
    "id": 12976,
    "cities_id": 132,
    "url_name": "المعالف",
    "name": "المعالف",
    "name_en": "Malef",
    "state_id": 131,
    "order": 9551,
    "order_en": 132,
    "status" :1,
    "cost" :50
  },
  {
    "id": 12978,
    "cities_id": 138,
    "url_name": "المستنصرية",
    "name": "المستنصرية",
    "name_en": "Mustansiriya",
    "state_id": 131,
    "order": 9552,
    "order_en": 138,
    "status" :1,
    "cost" :50
  },
  {
    "id": 12980,
    "cities_id": 34,
    "url_name": "الكفاءات",
    "name": "الكفاءات",
    "name_en": "Al-Kafa'at",
    "state_id": 131,
    "order": 9553,
    "order_en": 34,
    "status" :1,
    "cost" :50
  },
  {
    "id": 12982,
    "cities_id": 123,
    "url_name": "الكرخ",
    "name": "الكرخ",
    "name_en": "Karkh",
    "state_id": 131,
    "order": 9554,
    "order_en": 123,
    "status" :1,
    "cost" :50
  },
  {
    "id": 12984,
    "cities_id": 68,
    "url_name": "عرصات-الهندية",
    "name": "عرصات الهندية",
    "name_en": "Arasat AlHindiya",
    "state_id": 131,
    "order": 9555,
    "order_en": 68,
    "status" :1,
    "cost" :50
  },
  {
    "id": 12986,
    "cities_id": 62,
    "url_name": "العلوية",
    "name": "العلوية",
    "name_en": "Alwiyh",
    "state_id": 131,
    "order": 9556,
    "order_en": 62,
    "status" :1,
    "cost" :50
  },
  {
    "id": 12988,
    "cities_id": 19,
    "url_name": "الطارمية",
    "name": "الطارمية",
    "name_en": "Al Tarmia",
    "state_id": 131,
    "order": 9557,
    "order_en": 19,
    "status" :1,
    "cost" :50
  },
  {
    "id": 12990,
    "cities_id": 51,
    "url_name": "الصرافية",
    "name": "الصرافية",
    "name_en": "Al-Sarrafiya",
    "state_id": 131,
    "order": 9558,
    "order_en": 51,
    "status" :1,
    "cost" :50
  },
  {
    "id": 12992,
    "cities_id": 49,
    "url_name": "الصحفيين",
    "name": "الصحفيين",
    "name_en": "Al-Sahafyien",
    "state_id": 131,
    "order": 9559,
    "order_en": 49,
    "status" :1,
    "cost" :50
  },
  {
    "id": 12996,
    "cities_id": 55,
    "url_name": "السلاميات",
    "name": "السلاميات",
    "name_en": "Al-Slamiat",
    "state_id": 131,
    "order": 9561,
    "order_en": 55,
    "status" :1,
    "cost" :50
  },
  {
    "id": 12998,
    "cities_id": 14,
    "url_name": "الري",
    "name": "الري",
    "name_en": "Al Raay",
    "state_id": 131,
    "order": 9562,
    "order_en": 14,
    "status" :1,
    "cost" :50
  },
  {
    "id": 13000,
    "cities_id": 155,
    "url_name": "الرواد",
    "name": "الرواد",
    "name_en": "Ruwad",
    "state_id": 131,
    "order": 9563,
    "order_en": 155,
    "status" :1,
    "cost" :50
  },
  {
    "id": 13002,
    "cities_id": 152,
    "url_name": "الراشدية",
    "name": "الراشدية",
    "name_en": "Rashdiya",
    "state_id": 131,
    "order": 9564,
    "order_en": 152,
    "status" :1,
    "cost" :50
  },
  {
    "id": 13004,
    "cities_id": 100,
    "url_name": "الحميدية",
    "name": "الحميدية",
    "name_en": "Hamidiayh",
    "state_id": 131,
    "order": 9565,
    "order_en": 100,
    "status" :1,
    "cost" :50
  },
  {
    "id": 13006,
    "cities_id": 94,
    "url_name": "الحبيبية",
    "name": "الحبيبية",
    "name_en": "Habibiya",
    "state_id": 131,
    "order": 9566,
    "order_en": 94,
    "status" :1,
    "cost" :50
  },
  {
    "id": 13008,
    "cities_id": 169,
    "url_name": "التاجي",
    "name": "التاجي",
    "name_en": "Taji",
    "state_id": 131,
    "order": 9567,
    "order_en": 169,
    "status" :1,
    "cost" :50
  },
  {
    "id": 13010,
    "cities_id": 60,
    "url_name": "البوعامر",
    "name": "البوعامر",
    "name_en": "Albu Amer",
    "state_id": 131,
    "order": 9568,
    "order_en": 60,
    "status" :1,
    "cost" :50
  },
  {
    "id": 13012,
    "cities_id": 73,
    "url_name": "البكرية",
    "name": "البكرية",
    "name_en": "Bakria",
    "state_id": 131,
    "order": 9569,
    "order_en": 73,
    "status" :1,
    "cost" :50
  },
  {
    "id": 13014,
    "cities_id": 108,
    "url_name": "الإسكان",
    "name": "الإسكان",
    "name_en": "Iskan",
    "state_id": 131,
    "order": 9570,
    "order_en": 108,
    "status" :1,
    "cost" :50
  },
  {
    "id": 13112,
    "cities_id": 71,
    "url_name": "باب-الشيخ",
    "name": "باب الشيخ",
    "name_en": "Bab Al-Sheikh",
    "state_id": 131,
    "order": 9571,
    "order_en": 71,
    "status" :1,
    "cost" :50
  },
  {
    "id": 13114,
    "cities_id": 48,
    "url_name": "الصحة",
    "name": "الصحة",
    "name_en": "Al-Sahaa",
    "state_id": 131,
    "order": 9572,
    "order_en": 48,
    "status" :1,
    "cost" :50
  },
  {
    "id": 13116,
    "cities_id": 80,
    "url_name": "الداودي",
    "name": "الداودي",
    "name_en": "Daoudi",
    "state_id": 131,
    "order": 9573,
    "order_en": 80,
    "status" :1,
    "cost" :50
  },
  {
    "id": 13118,
    "cities_id": 125,
    "url_name": "منطقة-كسرة-وعطش",
    "name": "منطقة كسرة وعطش",
    "name_en": "Kasra w Atash",
    "state_id": 131,
    "order": 9574,
    "order_en": 125,
    "status" :1,
    "cost" :50
  },
  {
    "id": 13120,
    "cities_id": 121,
    "url_name": "كرادة-مريم",
    "name": "كرادة مريم",
    "name_en": "Karadat Maryam",
    "state_id": 131,
    "order": 9575,
    "order_en": 121,
    "status" :1,
    "cost" :50
  },
  {
    "id": 13122,
    "cities_id": 39,
    "url_name": "حي-المهندسين",
    "name": "حي المهندسين",
    "name_en": "Al-Muhandseen",
    "state_id": 131,
    "order": 9576,
    "order_en": 39,
    "status" :1,
    "cost" :50
  },
  {
    "id": 13124,
    "cities_id": 143,
    "url_name": "كرادة-خارج",
    "name": "كرادة خارج",
    "name_en": "Outer Karrada",
    "state_id": 131,
    "order": 9577,
    "order_en": 143,
    "status" :1,
    "cost" :50
  },
  {
    "id": 13126,
    "cities_id": 50,
    "url_name": "شارع-السلام",
    "name": "شارع السلام",
    "name_en": "Al-Salam",
    "state_id": 131,
    "order": 9578,
    "order_en": 50,
    "status" :1,
    "cost" :50
  },
  {
    "id": 13128,
    "cities_id": 28,
    "url_name": "البستان",
    "name": "البستان",
    "name_en": "Al-Bustan",
    "state_id": 131,
    "order": 9579,
    "order_en": 28,
    "status" :1,
    "cost" :50
  },
  {
    "id": 13130,
    "cities_id": 84,
    "url_name": "حي-دراغ",
    "name": "حي دراغ",
    "name_en": "Drage",
    "state_id": 131,
    "order": 9580,
    "order_en": 84,
    "status" :1,
    "cost" :50
  },
  {
    "id": 13132,
    "cities_id": 167,
    "url_name": "تبوك",
    "name": "تبوك",
    "name_en": "Tabok",
    "state_id": 131,
    "order": 9581,
    "order_en": 167,
    "status" :1,
    "cost" :50
  },
  {
    "id": 13134,
    "cities_id": 172,
    "url_name": "التعليم",
    "name": "التعليم",
    "name_en": "Taleem",
    "state_id": 131,
    "order": 9582,
    "order_en": 172,
    "status" :1,
    "cost" :50
  },
  {
    "id": 13136,
    "cities_id": 53,
    "url_name": "الشماعية",
    "name": "الشماعية",
    "name_en": "Al-Shamiyah",
    "state_id": 131,
    "order": 9583,
    "order_en": 53,
    "status" :1,
    "cost" :50
  },
  {
    "id": 13138,
    "cities_id": 166,
    "url_name": "الشورجة",
    "name": "الشورجة",
    "name_en": "Shorjah",
    "state_id": 131,
    "order": 9584,
    "order_en": 166,
    "status" :1,
    "cost" :50
  },
  {
    "id": 13140,
    "cities_id": 66,
    "url_name": "حي-الأندلس",
    "name": "حي الأندلس",
    "name_en": "Andalus",
    "state_id": 131,
    "order": 9585,
    "order_en": 66,
    "status" :1,
    "cost" :50
  },
  {
    "id": 13142,
    "cities_id": 107,
    "url_name": "حي-العربي",
    "name": "حي العربي",
    "name_en": "Hy Alaraby",
    "state_id": 131,
    "order": 9586,
    "order_en": 107,
    "status" :1,
    "cost" :50
  },
  {
    "id": 13144,
    "cities_id": 173,
    "url_name": "طرابلس",
    "name": "طرابلس",
    "name_en": "Tarablus",
    "state_id": 131,
    "order": 9587,
    "order_en": 173,
    "status" :1,
    "cost" :50
  },
  {
    "id": 13146,
    "cities_id": 26,
    "url_name": "الأطباء",
    "name": "الأطباء",
    "name_en": "Al-Ataba",
    "state_id": 131,
    "order": 9588,
    "order_en": 26,
    "status" :1,
    "cost" :50
  },
  {
    "id": 13148,
    "cities_id": 24,
    "url_name": "الألفين",
    "name": "الألفين",
    "name_en": "Al-Alfyn",
    "state_id": 131,
    "order": 9589,
    "order_en": 24,
    "status" :1,
    "cost" :50
  },
  {
    "id": 13150,
    "cities_id": 81,
    "url_name": "الديوان",
    "name": "الديوان",
    "name_en": "Diwan",
    "state_id": 131,
    "order": 9590,
    "order_en": 81,
    "status" :1,
    "cost" :50
  },
  {
    "id": 13152,
    "cities_id": 65,
    "url_name": "الأمانة",
    "name": "الأمانة",
    "name_en": "Ammana",
    "state_id": 131,
    "order": 9591,
    "order_en": 65,
    "status" :1,
    "cost" :50
  },
  {
    "id": 13154,
    "cities_id": 40,
    "url_name": "المخابرات",
    "name": "المخابرات",
    "name_en": "Al-Mukhabrat",
    "state_id": 131,
    "order": 9592,
    "order_en": 40,
    "status" :1,
    "cost" :50
  },
  {
    "id": 13156,
    "cities_id": 161,
    "url_name": "السفارات",
    "name": "السفارات",
    "name_en": "Safarat",
    "state_id": 131,
    "order": 9593,
    "order_en": 161,
    "status" :1,
    "cost" :50
  },
  {
    "id": 13158,
    "cities_id": 158,
    "url_name": "الصابيات",
    "name": "الصابيات",
    "name_en": "Sabiat",
    "state_id": 131,
    "order": 9594,
    "order_en": 158,
    "status" :1,
    "cost" :50
  },
  {
    "id": 13160,
    "cities_id": 46,
    "url_name": "الرئاسة",
    "name": "الرئاسة",
    "name_en": "Al-Riaasa",
    "state_id": 131,
    "order": 9595,
    "order_en": 46,
    "status" :1,
    "cost" :50
  },
  {
    "id": 13162,
    "cities_id": 5,
    "url_name": "ابو-نؤاس",
    "name": "ابو نؤاس",
    "name_en": "Abu Nwas",
    "state_id": 131,
    "order": 9596,
    "order_en": 5,
    "status" :1,
    "cost" :50
  },
  {
    "id": 13164,
    "cities_id": 42,
    "url_name": "النعيرية",
    "name": "النعيرية",
    "name_en": "Al-Nariyah",
    "state_id": 131,
    "order": 9597,
    "order_en": 42,
    "status" :1,
    "cost" :50
  },
  {
    "id": 13166,
    "cities_id": 96,
    "url_name": "حافظ-القاضي",
    "name": "حافظ القاضي",
    "name_en": "Hafiz Al-Qadi",
    "state_id": 131,
    "order": 9598,
    "order_en": 96,
    "status" :1,
    "cost" :50
  },
  {
    "id": 16523,
    "cities_id": 32,
    "url_name": "حي-الحمراء",
    "name": "حي الحمراء",
    "name_en": "Al-Hamra",
    "state_id": 131,
    "order": 9599,
    "order_en": 32,
    "status" :1,
    "cost" :50
  },
  {
    "id": 16521,
    "cities_id": 36,
    "url_name": "المأمون",
    "name": "المأمون",
    "name_en": "Al-Mamoun",
    "state_id": 131,
    "order": 9600,
    "order_en": 36,
    "status" :1,
    "cost" :50
  },
  {
    "id": 16519,
    "cities_id": 29,
    "url_name": "حي-الداخلية",
    "name": "حي الداخلية",
    "name_en": "Al-Dakhliya",
    "state_id": 131,
    "order": 9601,
    "order_en": 29,
    "status" :1,
    "cost" :50
  },
  {
    "id": 16511,
    "cities_id": 41,
    "url_name": "النهضة",
    "name": "النهضة",
    "name_en": "Al-Nahda",
    "state_id": 131,
    "order": 9602,
    "order_en": 41,
    "status" :1,
    "cost" :50
  },
  {
    "id": 15538,
    "cities_id": 7,
    "url_name": "شارع-المطار",
    "name": "شارع المطار",
    "name_en": "Airport St",
    "state_id": 131,
    "order": 9604,
    "order_en": 7,
    "status" :1,
    "cost" :50
  },
  {
    "id": 15540,
    "cities_id": 144,
    "url_name": "عويريج",
    "name": "عويريج",
    "name_en": "Owiriej",
    "state_id": 131,
    "order": 9605,
    "order_en": 144,
    "status" :1,
    "cost" :50
  },
  {
    "id": 12920,
    "cities_id": 145,
    "url_name": "بسماية",
    "name": "بسماية",
    "name_en": "Pasmaya",
    "state_id": 131,
    "order": 9606,
    "order_en": 145,
    "status" :1,
    "cost" :50
  },
  {
    "id": 18249,
    "cities_id": 128,
    "url_name": "كوريش-حي-السلام",
    "name": "كوريش حي السلام",
    "name_en": "Koresh Hai Al-Salam",
    "state_id": 131,
    "order": 9607,
    "order_en": 128,
    "status" :1,
    "cost" :50
  },
  {
    "id": 18251,
    "cities_id": 118,
    "url_name": "الكمالية",
    "name": "الكمالية",
    "name_en": "Kamaliya",
    "state_id": 131,
    "order": 9608,
    "order_en": 118,
    "status" :1,
    "cost" :50
  },
  {
    "id": 18253,
    "cities_id": 113,
    "url_name": "جوهرة-بغداد",
    "name": "جوهرة بغداد",
    "name_en": "Jawharat Baghdad",
    "state_id": 131,
    "order": 9609,
    "order_en": 113,
    "status" :1,
    "cost" :50
  },
  {
    "id": 18255,
    "cities_id": 61,
    "url_name": "علي-صالح",
    "name": "علي صالح",
    "name_en": "Ali Saleh",
    "state_id": 131,
    "order": 9610,
    "order_en": 61,
    "status" :1,
    "cost" :50
  },
  {
    "id": 18257,
    "cities_id": 54,
    "url_name": "الشرطة-الخامسة",
    "name": "الشرطة الخامسة",
    "name_en": "Al-Shurtah 5th",
    "state_id": 131,
    "order": 9611,
    "order_en": 54,
    "status" :1,
    "cost" :50
  },
  {
    "id": 18259,
    "cities_id": 35,
    "url_name": "حي-المعامل",
    "name": "حي المعامل",
    "name_en": "Al-Maamil",
    "state_id": 131,
    "order": 9612,
    "order_en": 35,
    "status" :1,
    "cost" :50
  },
  {
    "id": 18261,
    "cities_id": 98,
    "url_name": "حي-المعتصم",
    "name": "حي المعتصم",
    "name_en": "Hai Al-Moatasim",
    "state_id": 131,
    "order": 9613,
    "order_en": 98,
    "status" :1,
    "cost" :50
  },
  {
    "id": 18263,
    "cities_id": 79,
    "url_name": "جكوك",
    "name": "جكوك",
    "name_en": "Chkook",
    "state_id": 131,
    "order": 9614,
    "order_en": 79,
    "status" :1,
    "cost" :50
  },
  {
    "id": 18265,
    "cities_id": 43,
    "url_name": "شارع-النهر",
    "name": "شارع النهر",
    "name_en": "Al-Nehr St",
    "state_id": 131,
    "order": 9615,
    "order_en": 43,
    "status" :1,
    "cost" :50
  },
  {
    "id": 18267,
    "cities_id": 18,
    "url_name": "الشالجية",
    "name": "الشالجية",
    "name_en": "Al Shalchiya",
    "state_id": 131,
    "order": 9616,
    "order_en": 18,
    "status" :1,
    "cost" :50
  },
  {
    "id": 19003,
    "cities_id": 30,
    "url_name": "الدوانم",
    "name": "الدوانم",
    "name_en": "Al-Dowanem",
    "state_id": 131,
    "order": 9620,
    "order_en": 30,
    "status" :1,
    "cost" :50
  },
  {
    "id": 14875,
    "cities_id": 9626,
    "url_name": "أخرى",
    "name": "أخرى",
    "name_en": "Other",
    "state_id": 131,
    "order": 9626,
    "order_en": 9626,
    "status" :1,
    "cost" :50
  },

  {
    "id": 10027,
    "cities_id": 12,
    "url_name": "الكندي",
    "name": "الكندي",
    "name_en": "Al Kindy",
    "state_id": 132,
    "order": 9051,
    "order_en": 12,
    "status" :1,
    "cost" :50
  },
  {
    "id": 10029,
    "cities_id": 45,
    "url_name": "الحدباء",
    "name": "الحدباء",
    "name_en": "Hadba'",
    "state_id": 132,
    "order": 9052,
    "order_en": 45,
    "status" :1,
    "cost" :50
  },
  {
    "id": 10031,
    "cities_id": 70,
    "url_name": "الصديق",
    "name": "الصديق",
    "name_en": "Sadiq",
    "state_id": 132,
    "order": 9053,
    "order_en": 70,
    "status" :1,
    "cost" :50
  },
  {
    "id": 10033,
    "cities_id": 77,
    "url_name": "السكر",
    "name": "السكر",
    "name_en": "Sukar",
    "state_id": 132,
    "order": 9054,
    "order_en": 77,
    "status" :1,
    "cost" :50
  },
  {
    "id": 10035,
    "cities_id": 36,
    "url_name": "البلديات",
    "name": "البلديات",
    "name_en": "Baldiyat",
    "state_id": 132,
    "order": 9055,
    "order_en": 36,
    "status" :1,
    "cost" :50
  },
  {
    "id": 10037,
    "cities_id": 37,
    "url_name": "البريد",
    "name": "البريد",
    "name_en": "Bareed",
    "state_id": 132,
    "order": 9056,
    "order_en": 37,
    "status" :1,
    "cost" :50
  },
  {
    "id": 10039,
    "cities_id": 23,
    "url_name": "المثنى",
    "name": "المثنى",
    "name_en": "Al-Muthanna",
    "state_id": 132,
    "order": 9057,
    "order_en": 23,
    "status" :1,
    "cost" :50
  },
  {
    "id": 10041,
    "cities_id": 54,
    "url_name": "المصارف",
    "name": "المصارف",
    "name_en": "Masarif",
    "state_id": 132,
    "order": 9058,
    "order_en": 54,
    "status" :1,
    "cost" :50
  },
  {
    "id": 10043,
    "cities_id": 20,
    "url_name": "الزهور",
    "name": "الزهور",
    "name_en": "Al Zohoor",
    "state_id": 132,
    "order": 9059,
    "order_en": 20,
    "status" :1,
    "cost" :50
  },
  {
    "id": 10045,
    "cities_id": 78,
    "url_name": "التحرير",
    "name": "التحرير",
    "name_en": "Tahrir",
    "state_id": 132,
    "order": 9060,
    "order_en": 78,
    "status" :1,
    "cost" :50
  },
  {
    "id": 10047,
    "cities_id": 69,
    "url_name": "حي-صدام",
    "name": "حي صدام",
    "name_en": "Saddam",
    "state_id": 132,
    "order": 9061,
    "order_en": 69,
    "status" :1,
    "cost" :50
  },
  {
    "id": 10049,
    "cities_id": 26,
    "url_name": "القادسية-الثانية",
    "name": "القادسية الثانية",
    "name_en": "Al-Qadissiyi Al-Thanyet",
    "state_id": 132,
    "order": 9062,
    "order_en": 26,
    "status" :1,
    "cost" :50
  },
  {
    "id": 10051,
    "cities_id": 27,
    "url_name": "القادسية-الاولى",
    "name": "القادسية الاولى",
    "name_en": "Al-Qadissiyi Al-Ula",
    "state_id": 132,
    "order": 9063,
    "order_en": 27,
    "status" :1,
    "cost" :50
  },
  {
    "id": 10053,
    "cities_id": 13,
    "url_name": "حي-المشراق",
    "name": "حي المشراق",
    "name_en": "Al Mishraq",
    "state_id": 132,
    "order": 9064,
    "order_en": 13,
    "status" :1,
    "cost" :50
  },
  {
    "id": 10055,
    "cities_id": 25,
    "url_name": "النور",
    "name": "النور",
    "name_en": "Al-Noor",
    "state_id": 132,
    "order": 9065,
    "order_en": 25,
    "status" :1,
    "cost" :50
  },
  {
    "id": 10059,
    "cities_id": 66,
    "url_name": "فلسطين",
    "name": "فلسطين",
    "name_en": "Palestine",
    "state_id": 132,
    "order": 9067,
    "order_en": 66,
    "status" :1,
    "cost" :50
  },
  {
    "id": 10061,
    "cities_id": 40,
    "url_name": "دوميز",
    "name": "دوميز",
    "name_en": "Domiz",
    "state_id": 132,
    "order": 9068,
    "order_en": 40,
    "status" :1,
    "cost" :50
  },
  {
    "id": 10063,
    "cities_id": 76,
    "url_name": "سومر",
    "name": "سومر",
    "name_en": "Somer",
    "state_id": 132,
    "order": 9069,
    "order_en": 76,
    "status" :1,
    "cost" :50
  },
  {
    "id": 10065,
    "cities_id": 56,
    "url_name": "الميثاق",
    "name": "الميثاق",
    "name_en": "Mithaq",
    "state_id": 132,
    "order": 9070,
    "order_en": 56,
    "status" :1,
    "cost" :50
  },
  {
    "id": 10067,
    "cities_id": 81,
    "url_name": "الوحدة",
    "name": "الوحدة",
    "name_en": "Wihda",
    "state_id": 132,
    "order": 9071,
    "order_en": 81,
    "status" :1,
    "cost" :50
  },
  {
    "id": 10069,
    "cities_id": 55,
    "url_name": "المزارع",
    "name": "المزارع",
    "name_en": "Mazari'",
    "state_id": 132,
    "order": 9072,
    "order_en": 55,
    "status" :1,
    "cost" :50
  },
  {
    "id": 10071,
    "cities_id": 41,
    "url_name": "الضباط",
    "name": "الضباط",
    "name_en": "Dubat",
    "state_id": 132,
    "order": 9073,
    "order_en": 41,
    "status" :1,
    "cost" :50
  },
  {
    "id": 10073,
    "cities_id": 63,
    "url_name": "نينوى-الشرقية",
    "name": "نينوى الشرقية",
    "name_en": "Ninwa Al-Sharqiya",
    "state_id": 132,
    "order": 9074,
    "order_en": 63,
    "status" :1,
    "cost" :50
  },
  {
    "id": 10075,
    "cities_id": 53,
    "url_name": "المالية",
    "name": "المالية",
    "name_en": "Maliya",
    "state_id": 132,
    "order": 9075,
    "order_en": 53,
    "status" :1,
    "cost" :50
  },
  {
    "id": 10077,
    "cities_id": 24,
    "url_name": "النصر",
    "name": "النصر",
    "name_en": "Al-Nassr",
    "state_id": 132,
    "order": 9076,
    "order_en": 24,
    "status" :1,
    "cost" :50
  },
  {
    "id": 10081,
    "cities_id": 80,
    "url_name": "الثقافة",
    "name": "الثقافة",
    "name_en": "Thaqafeh",
    "state_id": 132,
    "order": 9078,
    "order_en": 80,
    "status" :1,
    "cost" :50
  },
  {
    "id": 10083,
    "cities_id": 58,
    "url_name": "المهندسين",
    "name": "المهندسين",
    "name_en": "Muhandiseen",
    "state_id": 132,
    "order": 9079,
    "order_en": 58,
    "status" :1,
    "cost" :50
  },
  {
    "id": 10085,
    "cities_id": 35,
    "url_name": "البعث",
    "name": "البعث",
    "name_en": "Ba'ath",
    "state_id": 132,
    "order": 9080,
    "order_en": 35,
    "status" :1,
    "cost" :50
  },
  {
    "id": 10087,
    "cities_id": 46,
    "url_name": "حي-المنصور",
    "name": "حي المنصور",
    "name_en": "Hayy Al Mansur",
    "state_id": 132,
    "order": 9081,
    "order_en": 46,
    "status" :1,
    "cost" :50
  },
  {
    "id": 10089,
    "cities_id": 74,
    "url_name": "الشهداء",
    "name": "الشهداء",
    "name_en": "Shuhada'",
    "state_id": 132,
    "order": 9082,
    "order_en": 74,
    "status" :1,
    "cost" :50
  },
  {
    "id": 10091,
    "cities_id": 79,
    "url_name": "تل-الرمان",
    "name": "تل الرمان",
    "name_en": "Tal Rumman",
    "state_id": 132,
    "order": 9083,
    "order_en": 79,
    "status" :1,
    "cost" :50
  },
  {
    "id": 10093,
    "cities_id": 57,
    "url_name": "المعلمين",
    "name": "المعلمين",
    "name_en": "Mu'almen",
    "state_id": 132,
    "order": 9084,
    "order_en": 57,
    "status" :1,
    "cost" :50
  },
  {
    "id": 10095,
    "cities_id": 31,
    "url_name": "العامل",
    "name": "العامل",
    "name_en": "Amel",
    "state_id": 132,
    "order": 9085,
    "order_en": 31,
    "status" :1,
    "cost" :50
  },
  {
    "id": 10097,
    "cities_id": 61,
    "url_name": "نابلس",
    "name": "نابلس",
    "name_en": "Nablus",
    "state_id": 132,
    "order": 9086,
    "order_en": 61,
    "status" :1,
    "cost" :50
  },
  {
    "id": 10099,
    "cities_id": 82,
    "url_name": "اليرموك",
    "name": "اليرموك",
    "name_en": "Yarmuk",
    "state_id": 132,
    "order": 9087,
    "order_en": 82,
    "status" :1,
    "cost" :50
  },
  {
    "id": 10101,
    "cities_id": 83,
    "url_name": "الزنجلي",
    "name": "الزنجلي",
    "name_en": "Zanjali",
    "state_id": 132,
    "order": 9088,
    "order_en": 83,
    "status" :1,
    "cost" :50
  },
  {
    "id": 10103,
    "cities_id": 71,
    "url_name": "الصحة",
    "name": "الصحة",
    "name_en": "Sahha",
    "state_id": 132,
    "order": 9089,
    "order_en": 71,
    "status" :1,
    "cost" :50
  },
  {
    "id": 10105,
    "cities_id": 1,
    "url_name": "17-تموز",
    "name": "17 تموز",
    "name_en": "17 July",
    "state_id": 132,
    "order": 9090,
    "order_en": 1,
    "status" :1,
    "cost" :50
  },
  {
    "id": 10107,
    "cities_id": 32,
    "url_name": "الاندلس",
    "name": "الاندلس",
    "name_en": "Andalus",
    "state_id": 132,
    "order": 9091,
    "order_en": 32,
    "status" :1,
    "cost" :50
  },
  {
    "id": 10109,
    "cities_id": 75,
    "url_name": "الشرطة",
    "name": "الشرطة",
    "name_en": "Shurta",
    "state_id": 132,
    "order": 9092,
    "order_en": 75,
    "status" :1,
    "cost" :50
  },
  {
    "id": 10111,
    "cities_id": 11,
    "url_name": "الجزائر",
    "name": "الجزائر",
    "name_en": "Al Jazar",
    "state_id": 132,
    "order": 9093,
    "order_en": 11,
    "status" :1,
    "cost" :50
  },
  {
    "id": 10113,
    "cities_id": 60,
    "url_name": "النبي-يونس",
    "name": "النبي يونس",
    "name_en": "Nabi Yonis",
    "state_id": 132,
    "order": 9094,
    "order_en": 60,
    "status" :1,
    "cost" :50
  },
  {
    "id": 10115,
    "cities_id": 67,
    "url_name": "الرشيدية",
    "name": "الرشيدية",
    "name_en": "Rashideyih",
    "state_id": 132,
    "order": 9095,
    "order_en": 67,
    "status" :1,
    "cost" :50
  },
  {
    "id": 10117,
    "cities_id": 33,
    "url_name": "العربي",
    "name": "العربي",
    "name_en": "Arabi",
    "state_id": 132,
    "order": 9096,
    "order_en": 33,
    "status" :1,
    "cost" :50
  },
  {
    "id": 10119,
    "cities_id": 34,
    "url_name": "العركوب",
    "name": "العركوب",
    "name_en": "Arkub",
    "state_id": 132,
    "order": 9097,
    "order_en": 34,
    "status" :1,
    "cost" :50
  },
  {
    "id": 10121,
    "cities_id": 50,
    "url_name": "الاقتصاديين",
    "name": "الاقتصاديين",
    "name_en": "Iqtisadeyun",
    "state_id": 132,
    "order": 9098,
    "order_en": 50,
    "status" :1,
    "cost" :50
  },
  {
    "id": 10123,
    "cities_id": 62,
    "url_name": "موصل-الجديدة",
    "name": "موصل الجديدة",
    "name_en": "New Mosul",
    "state_id": 132,
    "order": 9099,
    "order_en": 62,
    "status" :1,
    "cost" :50
  },
  {
    "id": 10125,
    "cities_id": 68,
    "url_name": "الساعة",
    "name": "الساعة",
    "name_en": "Sa'ah",
    "state_id": 132,
    "order": 9100,
    "order_en": 68,
    "status" :1,
    "cost" :50
  },
  {
    "id": 10127,
    "cities_id": 49,
    "url_name": "الانتصار",
    "name": "الانتصار",
    "name_en": "Intisar",
    "state_id": 132,
    "order": 9101,
    "order_en": 49,
    "status" :1,
    "cost" :50
  },
  {
    "id": 10129,
    "cities_id": 52,
    "url_name": "الكرامة",
    "name": "الكرامة",
    "name_en": "Karamah",
    "state_id": 132,
    "order": 9102,
    "order_en": 52,
    "status" :1,
    "cost" :50
  },
  {
    "id": 10131,
    "cities_id": 3,
    "url_name": "عدن",
    "name": "عدن",
    "name_en": "Aden",
    "state_id": 132,
    "order": 9103,
    "order_en": 3,
    "status" :1,
    "cost" :50
  },
  {
    "id": 10133,
    "cities_id": 73,
    "url_name": "الشيخكية",
    "name": "الشيخكية",
    "name_en": "Sheikhkiya",
    "state_id": 132,
    "order": 9104,
    "order_en": 73,
    "status" :1,
    "cost" :50
  },
  {
    "id": 10135,
    "cities_id": 2,
    "url_name": "أبي-تمّام",
    "name": "أبي تمّام",
    "name_en": "Abu Tammam",
    "state_id": 132,
    "order": 9105,
    "order_en": 2,
    "status" :1,
    "cost" :50
  },
  {
    "id": 10137,
    "cities_id": 64,
    "url_name": "النعمانية",
    "name": "النعمانية",
    "name_en": "Numaniyah",
    "state_id": 132,
    "order": 9106,
    "order_en": 64,
    "status" :1,
    "cost" :50
  },
  {
    "id": 10143,
    "cities_id": 39,
    "url_name": "القاهرة",
    "name": "القاهرة",
    "name_en": "Cairo",
    "state_id": 132,
    "order": 9109,
    "order_en": 39,
    "status" :1,
    "cost" :50
  },
  {
    "id": 10145,
    "cities_id": 28,
    "url_name": "القيروان",
    "name": "القيروان",
    "name_en": "Al-Qayrawan",
    "state_id": 132,
    "order": 9110,
    "order_en": 28,
    "status" :1,
    "cost" :50
  },
  {
    "id": 10147,
    "cities_id": 29,
    "url_name": "القدس",
    "name": "القدس",
    "name_en": "Al-Quds",
    "state_id": 132,
    "order": 9111,
    "order_en": 29,
    "status" :1,
    "cost" :50
  },
  {
    "id": 10149,
    "cities_id": 47,
    "url_name": "الرفاعي",
    "name": "الرفاعي",
    "name_en": "Hayy Ar Rafa`i",
    "state_id": 132,
    "order": 9112,
    "order_en": 47,
    "status" :1,
    "cost" :50
  },
  {
    "id": 10151,
    "cities_id": 44,
    "url_name": "الثورة",
    "name": "الثورة",
    "name_en": "El-Thawra",
    "state_id": 132,
    "order": 9113,
    "order_en": 44,
    "status" :1,
    "cost" :50
  },
  {
    "id": 10155,
    "cities_id": 6,
    "url_name": "الدواسة",
    "name": "الدواسة",
    "name_en": "Al Dawasah",
    "state_id": 132,
    "order": 9115,
    "order_en": 6,
    "status" :1,
    "cost" :50
  },
  {
    "id": 10159,
    "cities_id": 7,
    "url_name": "الفيصلية",
    "name": "الفيصلية",
    "name_en": "Al Faisaliyah",
    "state_id": 132,
    "order": 9117,
    "order_en": 7,
    "status" :1,
    "cost" :50
  },
  {
    "id": 10161,
    "cities_id": 4,
    "url_name": "السلام",
    "name": "السلام",
    "name_en": "Al  Salam",
    "state_id": 132,
    "order": 9118,
    "order_en": 4,
    "status" :1,
    "cost" :50
  },
  {
    "id": 10163,
    "cities_id": 9,
    "url_name": "الغزلاني",
    "name": "الغزلاني",
    "name_en": "Al Ghuzlani",
    "state_id": 132,
    "order": 9119,
    "order_en": 9,
    "status" :1,
    "cost" :50
  },
  {
    "id": 10165,
    "cities_id": 15,
    "url_name": "الشفاء",
    "name": "الشفاء",
    "name_en": "Al Shifa",
    "state_id": 132,
    "order": 9120,
    "order_en": 15,
    "status" :1,
    "cost" :50
  },
  {
    "id": 10167,
    "cities_id": 16,
    "url_name": "الصناعة",
    "name": "الصناعة",
    "name_en": "Al Sina'a",
    "state_id": 132,
    "order": 9121,
    "order_en": 16,
    "status" :1,
    "cost" :50
  },
  {
    "id": 10169,
    "cities_id": 10,
    "url_name": "الأخاء",
    "name": "الأخاء",
    "name_en": "Al Ikha",
    "state_id": 132,
    "order": 9122,
    "order_en": 10,
    "status" :1,
    "cost" :50
  },
  {
    "id": 10171,
    "cities_id": 17,
    "url_name": "السويس",
    "name": "السويس",
    "name_en": "Al Suez",
    "state_id": 132,
    "order": 9123,
    "order_en": 17,
    "status" :1,
    "cost" :50
  },
  {
    "id": 10173,
    "cities_id": 5,
    "url_name": "الاعلام",
    "name": "الاعلام",
    "name_en": "Al Alam",
    "state_id": 132,
    "order": 9124,
    "order_en": 5,
    "status" :1,
    "cost" :50
  },
  {
    "id": 10175,
    "cities_id": 30,
    "url_name": "التأميم",
    "name": "التأميم",
    "name_en": "Al-Taameem",
    "state_id": 132,
    "order": 9125,
    "order_en": 30,
    "status" :1,
    "cost" :50
  },
  {
    "id": 10177,
    "cities_id": 19,
    "url_name": "الزراعي",
    "name": "الزراعي",
    "name_en": "Al Zira'i",
    "state_id": 132,
    "order": 9126,
    "order_en": 19,
    "status" :1,
    "cost" :50
  },
  {
    "id": 10179,
    "cities_id": 8,
    "url_name": "الجامعة",
    "name": "الجامعة",
    "name_en": "Al Gamaa",
    "state_id": 132,
    "order": 9127,
    "order_en": 8,
    "status" :1,
    "cost" :50
  },
  {
    "id": 10181,
    "cities_id": 43,
    "url_name": "المأمون",
    "name": "المأمون",
    "name_en": "El-Maamoun",
    "state_id": 132,
    "order": 9128,
    "order_en": 43,
    "status" :1,
    "cost" :50
  },
  {
    "id": 10183,
    "cities_id": 42,
    "url_name": "الخضراء",
    "name": "الخضراء",
    "name_en": "El Khadraa",
    "state_id": 132,
    "order": 9129,
    "order_en": 42,
    "status" :1,
    "cost" :50
  },
  {
    "id": 10193,
    "cities_id": 72,
    "url_name": "الشيخ-فتحي",
    "name": "الشيخ فتحي",
    "name_en": "Shakh Fathi",
    "state_id": 132,
    "order": 9134,
    "order_en": 72,
    "status" :1,
    "cost" :50
  },
  {
    "id": 10197,
    "cities_id": 21,
    "url_name": "المحطّة",
    "name": "المحطّة",
    "name_en": "Al mahata",
    "state_id": 132,
    "order": 9136,
    "order_en": 21,
    "status" :1,
    "cost" :50
  },
  {
    "id": 10199,
    "cities_id": 18,
    "url_name": "الطيران",
    "name": "الطيران",
    "name_en": "Al Teran",
    "state_id": 132,
    "order": 9137,
    "order_en": 18,
    "status" :1,
    "cost" :50
  },
  {
    "id": 10201,
    "cities_id": 65,
    "url_name": "وادي-حجر",
    "name": "وادي حجر",
    "name_en": "Ouadi Hajar",
    "state_id": 132,
    "order": 9138,
    "order_en": 65,
    "status" :1,
    "cost" :50
  },
  {
    "id": 10203,
    "cities_id": 59,
    "url_name": "النبي-شيت",
    "name": "النبي شيت",
    "name_en": "Nabi Chit",
    "state_id": 132,
    "order": 9139,
    "order_en": 59,
    "status" :1,
    "cost" :50
  },
  {
    "id": 10205,
    "cities_id": 51,
    "url_name": "يافا",
    "name": "يافا",
    "name_en": "Jaffa",
    "state_id": 132,
    "order": 9140,
    "order_en": 51,
    "status" :1,
    "cost" :50
  },
  {
    "id": 10207,
    "cities_id": 14,
    "url_name": "النجار",
    "name": "النجار",
    "name_en": "Al Najjar",
    "state_id": 132,
    "order": 9141,
    "order_en": 14,
    "status" :1,
    "cost" :50
  },
  {
    "id": 13094,
    "cities_id": 22,
    "url_name": "حي-البكر",
    "name": "حي البكر",
    "name_en": "Al-Bakir",
    "state_id": 132,
    "order": 9142,
    "order_en": 22,
    "status" :1,
    "cost" :50
  },
  {
    "id": 15560,
    "cities_id": 48,
    "url_name": "المنطقة-الصناعية",
    "name": "المنطقة الصناعية",
    "name_en": "Industrial District",
    "state_id": 132,
    "order": 9144,
    "order_en": 48,
    "status" :1,
    "cost" :50
  },
  {
    "id": 18313,
    "cities_id": 38,
    "url_name": "برطلة",
    "name": "برطلة",
    "name_en": "Bartella",
    "state_id": 132,
    "order": 9145,
    "order_en": 38,
    "status" :1,
    "cost" :50
  },
  {
    "id": 14876,
    "cities_id": 9154,
    "url_name": "أخرى",
    "name": "أخرى",
    "name_en": "Other",
    "state_id": 132,
    "order": 9154,
    "order_en": 9154,
    "status" :1,
    "cost" :50
  },

  {
    "id": 9339,
    "cities_id": 3,
    "url_name": "ابي-الخصيب",
    "name": "ابي الخصيب",
    "name_en": "Abu Al-Khaseeb",
    "state_id": 133,
    "order": 4670,
    "order_en": 3,
    "status" :1,
    "cost" :50
  },
  {
    "id": 9341,
    "cities_id": 39,
    "url_name": "الاساتذة",
    "name": "الاساتذة",
    "name_en": "Asatidha",
    "state_id": 133,
    "order": 4671,
    "order_en": 39,
    "status" :1,
    "cost" :50
  },
  {
    "id": 9343,
    "cities_id": 40,
    "url_name": "الاصمعي",
    "name": "الاصمعي",
    "name_en": "Asma'i",
    "state_id": 133,
    "order": 4672,
    "order_en": 40,
    "status" :1,
    "cost" :50
  },
  {
    "id": 9345,
    "cities_id": 41,
    "url_name": "البراضعية",
    "name": "البراضعية",
    "name_en": "Baradi'yah",
    "state_id": 133,
    "order": 4673,
    "order_en": 41,
    "status" :1,
    "cost" :50
  },
  {
    "id": 9347,
    "cities_id": 86,
    "url_name": "التحسينية",
    "name": "التحسينية",
    "name_en": "Tahseneya",
    "state_id": 133,
    "order": 4674,
    "order_en": 86,
    "status" :1,
    "cost" :50
  },
  {
    "id": 9349,
    "cities_id": 87,
    "url_name": "التنومة",
    "name": "التنومة",
    "name_en": "Tannumah",
    "state_id": 133,
    "order": 4675,
    "order_en": 87,
    "status" :1,
    "cost" :50
  },
  {
    "id": 9351,
    "cities_id": 56,
    "url_name": "الجبيلة",
    "name": "الجبيلة",
    "name_en": "Jubaileh",
    "state_id": 133,
    "order": 4676,
    "order_en": 56,
    "status" :1,
    "cost" :50
  },
  {
    "id": 9353,
    "cities_id": 55,
    "url_name": "الجزائر",
    "name": "الجزائر",
    "name_en": "Jaza'ir",
    "state_id": 133,
    "order": 4677,
    "order_en": 55,
    "status" :1,
    "cost" :50
  },
  {
    "id": 9357,
    "cities_id": 57,
    "url_name": "الجمهورية",
    "name": "الجمهورية",
    "name_en": "Jumhuriya",
    "state_id": 133,
    "order": 4679,
    "order_en": 57,
    "status" :1,
    "cost" :50
  },
  {
    "id": 9359,
    "cities_id": 58,
    "url_name": "الجنينة",
    "name": "الجنينة",
    "name_en": "Juninah",
    "state_id": 133,
    "order": 4680,
    "order_en": 58,
    "status" :1,
    "cost" :50
  },
  {
    "id": 9361,
    "cities_id": 53,
    "url_name": "الحكيمية",
    "name": "الحكيمية",
    "name_en": "Hakemeia",
    "state_id": 133,
    "order": 4681,
    "order_en": 53,
    "status" :1,
    "cost" :50
  },
  {
    "id": 9363,
    "cities_id": 60,
    "url_name": "الخضراء",
    "name": "الخضراء",
    "name_en": "Khadra'a",
    "state_id": 133,
    "order": 4682,
    "order_en": 60,
    "status" :1,
    "cost" :50
  },
  {
    "id": 9365,
    "cities_id": 61,
    "url_name": "الخليج",
    "name": "الخليج",
    "name_en": "Khaleej",
    "state_id": 133,
    "order": 4683,
    "order_en": 61,
    "status" :1,
    "cost" :50
  },
  {
    "id": 9367,
    "cities_id": 76,
    "url_name": "الرسالة",
    "name": "الرسالة",
    "name_en": "Rissala",
    "state_id": 133,
    "order": 4684,
    "order_en": 76,
    "status" :1,
    "cost" :50
  },
  {
    "id": 9369,
    "cities_id": 77,
    "url_name": "الرميلة",
    "name": "الرميلة",
    "name_en": "Rumaila",
    "state_id": 133,
    "order": 4685,
    "order_en": 77,
    "status" :1,
    "cost" :50
  },
  {
    "id": 9371,
    "cities_id": 95,
    "url_name": "الزبير",
    "name": "الزبير",
    "name_en": "Zubayr",
    "state_id": 133,
    "order": 4686,
    "order_en": 95,
    "status" :1,
    "cost" :50
  },
  {
    "id": 9373,
    "cities_id": 94,
    "url_name": "الزهراء",
    "name": "الزهراء",
    "name_en": "Zahra'a",
    "state_id": 133,
    "order": 4687,
    "order_en": 94,
    "status" :1,
    "cost" :50
  },
  {
    "id": 9375,
    "cities_id": 81,
    "url_name": "الساعي",
    "name": "الساعي",
    "name_en": "Saie",
    "state_id": 133,
    "order": 4688,
    "order_en": 81,
    "status" :1,
    "cost" :50
  },
  {
    "id": 9377,
    "cities_id": 83,
    "url_name": "الشعيبة",
    "name": "الشعيبة",
    "name_en": "Sha'abeya",
    "state_id": 133,
    "order": 4689,
    "order_en": 83,
    "status" :1,
    "cost" :50
  },
  {
    "id": 9379,
    "cities_id": 84,
    "url_name": "الشلامجة",
    "name": "الشلامجة",
    "name_en": "Shalamja",
    "state_id": 133,
    "order": 4690,
    "order_en": 84,
    "status" :1,
    "cost" :50
  },
  {
    "id": 9381,
    "cities_id": 14,
    "url_name": "الصالحية",
    "name": "الصالحية",
    "name_en": "Al Salheya",
    "state_id": 133,
    "order": 4691,
    "order_en": 14,
    "status" :1,
    "cost" :50
  },
  {
    "id": 9383,
    "cities_id": 15,
    "url_name": "الطوبة-والنخيلة",
    "name": "الطوبة والنخيلة",
    "name_en": "Al Tuba Wa Al Nakhila",
    "state_id": 133,
    "order": 4692,
    "order_en": 15,
    "status" :1,
    "cost" :50
  },
  {
    "id": 9385,
    "cities_id": 88,
    "url_name": "الطويسة",
    "name": "الطويسة",
    "name_en": "Tuwaisa",
    "state_id": 133,
    "order": 4693,
    "order_en": 88,
    "status" :1,
    "cost" :50
  },
  {
    "id": 9389,
    "cities_id": 7,
    "url_name": "العشار",
    "name": "العشار",
    "name_en": "Al Ashar",
    "state_id": 133,
    "order": 4695,
    "order_en": 7,
    "status" :1,
    "cost" :50
  },
  {
    "id": 9391,
    "cities_id": 49,
    "url_name": "الفيروزية",
    "name": "الفيروزية",
    "name_en": "Firuziyah",
    "state_id": 133,
    "order": 4696,
    "order_en": 49,
    "status" :1,
    "cost" :50
  },
  {
    "id": 9393,
    "cities_id": 75,
    "url_name": "القبلة",
    "name": "القبلة",
    "name_en": "Qibla",
    "state_id": 133,
    "order": 4697,
    "order_en": 75,
    "status" :1,
    "cost" :50
  },
  {
    "id": 9395,
    "cities_id": 63,
    "url_name": "الكباسي",
    "name": "الكباسي",
    "name_en": "Kibasi",
    "state_id": 133,
    "order": 4698,
    "order_en": 63,
    "status" :1,
    "cost" :50
  },
  {
    "id": 9397,
    "cities_id": 67,
    "url_name": "الكزيزة",
    "name": "الكزيزة",
    "name_en": "Kzaiza",
    "state_id": 133,
    "order": 4699,
    "order_en": 67,
    "status" :1,
    "cost" :50
  },
  {
    "id": 9399,
    "cities_id": 64,
    "url_name": "الكندي",
    "name": "الكندي",
    "name_en": "Kindi",
    "state_id": 133,
    "order": 4700,
    "order_en": 64,
    "status" :1,
    "cost" :50
  },
  {
    "id": 9401,
    "cities_id": 9,
    "url_name": "المشراق-الجديد",
    "name": "المشراق الجديد",
    "name_en": "Al Mishraq al Jadeed",
    "state_id": 133,
    "order": 4701,
    "order_en": 9,
    "status" :1,
    "cost" :50
  },
  {
    "id": 9403,
    "cities_id": 10,
    "url_name": "المشراق-القديم",
    "name": "المشراق القديم",
    "name_en": "Al Mishraq al Qadeem",
    "state_id": 133,
    "order": 4702,
    "order_en": 10,
    "status" :1,
    "cost" :50
  },
  {
    "id": 9405,
    "cities_id": 36,
    "url_name": "المطيحة",
    "name": "المطيحة",
    "name_en": "Amitahiyah",
    "state_id": 133,
    "order": 4703,
    "order_en": 36,
    "status" :1,
    "cost" :50
  },
  {
    "id": 9407,
    "cities_id": 69,
    "url_name": "المعقل",
    "name": "المعقل",
    "name_en": "Maqal",
    "state_id": 133,
    "order": 4704,
    "order_en": 69,
    "status" :1,
    "cost" :50
  },
  {
    "id": 9409,
    "cities_id": 71,
    "url_name": "المفتية",
    "name": "المفتية",
    "name_en": "Muftiyah",
    "state_id": 133,
    "order": 4705,
    "order_en": 71,
    "status" :1,
    "cost" :50
  },
  {
    "id": 9411,
    "cities_id": 72,
    "url_name": "المهندسين",
    "name": "المهندسين",
    "name_en": "Muhandiseen",
    "state_id": 133,
    "order": 4706,
    "order_en": 72,
    "status" :1,
    "cost" :50
  },
  {
    "id": 9413,
    "cities_id": 73,
    "url_name": "النجيبية",
    "name": "النجيبية",
    "name_en": "Najibiya",
    "state_id": 133,
    "order": 4707,
    "order_en": 73,
    "status" :1,
    "cost" :50
  },
  {
    "id": 9415,
    "cities_id": 89,
    "url_name": "ام-قصر",
    "name": "ام قصر",
    "name_en": "Um Qasr",
    "state_id": 133,
    "order": 4708,
    "order_en": 89,
    "status" :1,
    "cost" :50
  },
  {
    "id": 9417,
    "cities_id": 43,
    "url_name": "بريهة",
    "name": "بريهة",
    "name_en": "Briha",
    "state_id": 133,
    "order": 4709,
    "order_en": 43,
    "status" :1,
    "cost" :50
  },
  {
    "id": 9419,
    "cities_id": 8,
    "url_name": "الجامعة",
    "name": "الجامعة",
    "name_en": "Al Jameea",
    "state_id": 133,
    "order": 4710,
    "order_en": 8,
    "status" :1,
    "cost" :50
  },
  {
    "id": 9421,
    "cities_id": 2,
    "url_name": "خمسة-ميل",
    "name": "خمسة ميل",
    "name_en": "5 Miles Camp",
    "state_id": 133,
    "order": 4711,
    "order_en": 2,
    "status" :1,
    "cost" :50
  },
  {
    "id": 9423,
    "cities_id": 62,
    "url_name": "خور-الزبير",
    "name": "خور الزبير",
    "name_en": "Khor Al Zubair",
    "state_id": 133,
    "order": 4712,
    "order_en": 62,
    "status" :1,
    "cost" :50
  },
  {
    "id": 9425,
    "cities_id": 48,
    "url_name": "دور-نواب-الضباط",
    "name": "دور نواب الضباط",
    "name_en": "Dur Nuwab Al Dubat",
    "state_id": 133,
    "order": 4713,
    "order_en": 48,
    "status" :1,
    "cost" :50
  },
  {
    "id": 9427,
    "cities_id": 80,
    "url_name": "صفوان",
    "name": "صفوان",
    "name_en": "Safwan",
    "state_id": 133,
    "order": 4714,
    "order_en": 80,
    "status" :1,
    "cost" :50
  },
  {
    "id": 9429,
    "cities_id": 82,
    "url_name": "صنعاء",
    "name": "صنعاء",
    "name_en": "Sana'a",
    "state_id": 133,
    "order": 4715,
    "order_en": 82,
    "status" :1,
    "cost" :50
  },
  {
    "id": 9431,
    "cities_id": 65,
    "url_name": "كردلاند",
    "name": "كردلاند",
    "name_en": "Kurdland",
    "state_id": 133,
    "order": 4716,
    "order_en": 65,
    "status" :1,
    "cost" :50
  },
  {
    "id": 9433,
    "cities_id": 59,
    "url_name": "كرمة-علي",
    "name": "كرمة علي",
    "name_en": "Karmat Ali",
    "state_id": 133,
    "order": 4717,
    "order_en": 59,
    "status" :1,
    "cost" :50
  },
  {
    "id": 9435,
    "cities_id": 70,
    "url_name": "مناوي-باشا",
    "name": "مناوي باشا",
    "name_en": "Mnawi Basha",
    "state_id": 133,
    "order": 4718,
    "order_en": 70,
    "status" :1,
    "cost" :50
  },
  {
    "id": 9437,
    "cities_id": 68,
    "url_name": "مناوي-لجم",
    "name": "مناوي لجم",
    "name_en": "Manawi Lajim",
    "state_id": 133,
    "order": 4719,
    "order_en": 68,
    "status" :1,
    "cost" :50
  },
  {
    "id": 9439,
    "cities_id": 93,
    "url_name": "ياسين-خريبط",
    "name": "ياسين خريبط",
    "name_en": "Yaseen Khrebit",
    "state_id": 133,
    "order": 4720,
    "order_en": 93,
    "status" :1,
    "cost" :50
  },
  {
    "id": 9441,
    "cities_id": 5,
    "url_name": "الامن-الداخلي",
    "name": "الامن الداخلي",
    "name_en": "Al Amn Al Dakhile",
    "state_id": 133,
    "order": 4721,
    "order_en": 5,
    "status" :1,
    "cost" :50
  },
  {
    "id": 10005,
    "cities_id": 91,
    "url_name": "جامعة-البصرة",
    "name": "جامعة البصرة",
    "name_en": "University of Basrah",
    "state_id": 133,
    "order": 9040,
    "order_en": 91,
    "status" :1,
    "cost" :50
  },
  {
    "id": 10896,
    "cities_id": 29,
    "url_name": "القرنه",
    "name": "القرنه",
    "name_en": "Al-Qurnah",
    "state_id": 133,
    "order": 9505,
    "order_en": 29,
    "status" :1,
    "cost" :50
  },
  {
    "id": 12768,
    "cities_id": 46,
    "url_name": "دور-النفط",
    "name": "دور النفط",
    "name_en": "Dur Al-Naft",
    "state_id": 133,
    "order": 9506,
    "order_en": 46,
    "status" :1,
    "cost" :50
  },
  {
    "id": 12770,
    "cities_id": 25,
    "url_name": "الحيانية",
    "name": "الحيانية",
    "name_en": "Al-Hayyaniyah",
    "state_id": 133,
    "order": 9507,
    "order_en": 25,
    "status" :1,
    "cost" :50
  },
  {
    "id": 12826,
    "cities_id": 12,
    "url_name": "الموفقيه",
    "name": "الموفقيه",
    "name_en": "Al Muwafaqiya",
    "state_id": 133,
    "order": 9508,
    "order_en": 12,
    "status" :1,
    "cost" :50
  },
  {
    "id": 13172,
    "cities_id": 22,
    "url_name": "الفاو",
    "name": "الفاو",
    "name_en": "Al-Faw",
    "state_id": 133,
    "order": 9509,
    "order_en": 22,
    "status" :1,
    "cost" :50
  },
  {
    "id": 13174,
    "cities_id": 66,
    "url_name": "كوت-الحجاج",
    "name": "كوت الحجاج",
    "name_en": "Kut Al Hijaj",
    "state_id": 133,
    "order": 9510,
    "order_en": 66,
    "status" :1,
    "cost" :50
  },
  {
    "id": 13176,
    "cities_id": 85,
    "url_name": "قضاء-شط-العرب",
    "name": "قضاء شط العرب",
    "name_en": "Shatt Al-Arab",
    "state_id": 133,
    "order": 9511,
    "order_en": 85,
    "status" :1,
    "cost" :50
  },
  {
    "id": 13178,
    "cities_id": 23,
    "url_name": "الهارثة",
    "name": "الهارثة",
    "name_en": "Al-Hartha",
    "state_id": 133,
    "order": 9512,
    "order_en": 23,
    "status" :1,
    "cost" :50
  },
  {
    "id": 13180,
    "cities_id": 27,
    "url_name": "قضاء-المدينة",
    "name": "قضاء المدينة",
    "name_en": "Al-Midaina",
    "state_id": 133,
    "order": 9513,
    "order_en": 27,
    "status" :1,
    "cost" :50
  },
  {
    "id": 13182,
    "cities_id": 38,
    "url_name": "صناعية-حمدان",
    "name": "صناعية حمدان",
    "name_en": "As Sina'iyah",
    "state_id": 133,
    "order": 9514,
    "order_en": 38,
    "status" :1,
    "cost" :50
  },
  {
    "id": 13184,
    "cities_id": 79,
    "url_name": "صبخة-العرب",
    "name": "صبخة العرب",
    "name_en": "Sabkhat Al Arab",
    "state_id": 133,
    "order": 9515,
    "order_en": 79,
    "status" :1,
    "cost" :50
  },
  {
    "id": 13186,
    "cities_id": 78,
    "url_name": "ساحة-سعد",
    "name": "ساحة سعد",
    "name_en": "Sa'ad",
    "state_id": 133,
    "order": 9516,
    "order_en": 78,
    "status" :1,
    "cost" :50
  },
  {
    "id": 13188,
    "cities_id": 28,
    "url_name": "حي-المعلمين",
    "name": "حي المعلمين",
    "name_en": "Al-Moalimeen",
    "state_id": 133,
    "order": 9517,
    "order_en": 28,
    "status" :1,
    "cost" :50
  },
  {
    "id": 13190,
    "cities_id": 54,
    "url_name": "حي-الكفاءات",
    "name": "حي الكفاءات",
    "name_en": "Hayy Al Kafaat",
    "state_id": 133,
    "order": 9518,
    "order_en": 54,
    "status" :1,
    "cost" :50
  },
  {
    "id": 13192,
    "cities_id": 6,
    "url_name": "حي-الأصدقاء",
    "name": "حي الأصدقاء",
    "name_en": "Al Asdiqaa",
    "state_id": 133,
    "order": 9519,
    "order_en": 6,
    "status" :1,
    "cost" :50
  },
  {
    "id": 13194,
    "cities_id": 90,
    "url_name": "أم-النعاج",
    "name": "أم النعاج",
    "name_en": "Umm Al-Na'aj",
    "state_id": 133,
    "order": 9520,
    "order_en": 90,
    "status" :1,
    "cost" :50
  },
  {
    "id": 13196,
    "cities_id": 13,
    "url_name": "النشوة",
    "name": "النشوة",
    "name_en": "Al Nashwa",
    "state_id": 133,
    "order": 9521,
    "order_en": 13,
    "status" :1,
    "cost" :50
  },
  {
    "id": 13753,
    "cities_id": 4,
    "url_name": "الديار",
    "name": "الديار",
    "name_en": "Ad Dayr",
    "state_id": 133,
    "order": 9522,
    "order_en": 4,
    "status" :1,
    "cost" :50
  },
  {
    "id": 16495,
    "cities_id": 19,
    "url_name": "مجمع-الأمل-السكني",
    "name": "مجمع الأمل السكني",
    "name_en": "Al-Amal residential complex",
    "state_id": 133,
    "order": 9524,
    "order_en": 19,
    "status" :1,
    "cost" :50
  },
  {
    "id": 16555,
    "cities_id": 34,
    "url_name": "شارع-الوفود",
    "name": "شارع الوفود",
    "name_en": "Al-Wofood St.",
    "state_id": 133,
    "order": 9525,
    "order_en": 34,
    "status" :1,
    "cost" :50
  },
  {
    "id": 18269,
    "cities_id": 47,
    "url_name": "دور-القضاة",
    "name": "دور القضاة",
    "name_en": "Dur Al-Qoudah",
    "state_id": 133,
    "order": 9527,
    "order_en": 47,
    "status" :1,
    "cost" :50
  },
  {
    "id": 18271,
    "cities_id": 44,
    "url_name": "مركز-المدينه",
    "name": "مركز المدينه",
    "name_en": "City Center",
    "state_id": 133,
    "order": 9528,
    "order_en": 44,
    "status" :1,
    "cost" :50
  },
  {
    "id": 18273,
    "cities_id": 21,
    "url_name": "البيضان",
    "name": "البيضان",
    "name_en": "Al-Beidan",
    "state_id": 133,
    "order": 9529,
    "order_en": 21,
    "status" :1,
    "cost" :50
  },
  {
    "id": 18275,
    "cities_id": 50,
    "url_name": "حي-الشرطة",
    "name": "حي الشرطة",
    "name_en": "Hai Al-Shurta",
    "state_id": 133,
    "order": 9530,
    "order_en": 50,
    "status" :1,
    "cost" :50
  },
  {
    "id": 18277,
    "cities_id": 42,
    "url_name": "المدينة-الرياضية",
    "name": "المدينة الرياضية",
    "name_en": "Basra Sports City",
    "state_id": 133,
    "order": 9531,
    "order_en": 42,
    "status" :1,
    "cost" :50
  },
  {
    "id": 18279,
    "cities_id": 33,
    "url_name": "التميمية",
    "name": "التميمية",
    "name_en": "Al-Tamimiya",
    "state_id": 133,
    "order": 9532,
    "order_en": 33,
    "status" :1,
    "cost" :50
  },
  {
    "id": 18281,
    "cities_id": 26,
    "url_name": "الجزيره",
    "name": "الجزيره",
    "name_en": "Al-Jazzera",
    "state_id": 133,
    "order": 9533,
    "order_en": 26,
    "status" :1,
    "cost" :50
  },
  {
    "id": 18283,
    "cities_id": 92,
    "url_name": "عويسيان",
    "name": "عويسيان",
    "name_en": "Uwaysan",
    "state_id": 133,
    "order": 9534,
    "order_en": 92,
    "status" :1,
    "cost" :50
  },
  {
    "id": 18285,
    "cities_id": 17,
    "url_name": "الابلة",
    "name": "الابلة",
    "name_en": "Al-Abelah",
    "state_id": 133,
    "order": 9535,
    "order_en": 17,
    "status" :1,
    "cost" :50
  },
  {
    "id": 18287,
    "cities_id": 11,
    "url_name": "المدراء",
    "name": "المدراء",
    "name_en": "Al Mudaraa",
    "state_id": 133,
    "order": 9536,
    "order_en": 11,
    "status" :1,
    "cost" :50
  },
  {
    "id": 18289,
    "cities_id": 51,
    "url_name": "حي-الزهور",
    "name": "حي الزهور",
    "name_en": "Hai Al-Zuhor",
    "state_id": 133,
    "order": 9537,
    "order_en": 51,
    "status" :1,
    "cost" :50
  },
  {
    "id": 18291,
    "cities_id": 1,
    "url_name": "شارع-14-تموز",
    "name": "شارع 14 تموز",
    "name_en": "14 Tamooz Street",
    "state_id": 133,
    "order": 9538,
    "order_en": 1,
    "status" :1,
    "cost" :50
  },
  {
    "id": 18293,
    "cities_id": 32,
    "url_name": "السيبه",
    "name": "السيبه",
    "name_en": "Al-Seeba",
    "state_id": 133,
    "order": 9539,
    "order_en": 32,
    "status" :1,
    "cost" :50
  },
  {
    "id": 18295,
    "cities_id": 20,
    "url_name": "بصرة-القديمة",
    "name": "بصرة القديمة",
    "name_en": "Al-Basrah Al-Qadimah",
    "state_id": 133,
    "order": 9540,
    "order_en": 20,
    "status" :1,
    "cost" :50
  },
  {
    "id": 18297,
    "cities_id": 45,
    "url_name": "الكورنيش",
    "name": "الكورنيش",
    "name_en": "Corniche",
    "state_id": 133,
    "order": 9541,
    "order_en": 45,
    "status" :1,
    "cost" :50
  },
  {
    "id": 18299,
    "cities_id": 18,
    "url_name": "الاكوات",
    "name": "الاكوات",
    "name_en": "Al-Akawat",
    "state_id": 133,
    "order": 9542,
    "order_en": 18,
    "status" :1,
    "cost" :50
  },
  {
    "id": 18301,
    "cities_id": 31,
    "url_name": "شارع-السعدي",
    "name": "شارع السعدي",
    "name_en": "Al-Saadi St",
    "state_id": 133,
    "order": 9543,
    "order_en": 31,
    "status" :1,
    "cost" :50
  },
  {
    "id": 18303,
    "cities_id": 35,
    "url_name": "اليوبه",
    "name": "اليوبه",
    "name_en": "Al-Yuba",
    "state_id": 133,
    "order": 9544,
    "order_en": 35,
    "status" :1,
    "cost" :50
  },
  {
    "id": 18305,
    "cities_id": 37,
    "url_name": "السيمر",
    "name": "السيمر",
    "name_en": "As Saymar",
    "state_id": 133,
    "order": 9545,
    "order_en": 37,
    "status" :1,
    "cost" :50
  },
  {
    "id": 18307,
    "cities_id": 52,
    "url_name": "حي-بغداد",
    "name": "حي بغداد",
    "name_en": "Hai Baghdad ",
    "state_id": 133,
    "order": 9546,
    "order_en": 52,
    "status" :1,
    "cost" :50
  },
  {
    "id": 18309,
    "cities_id": 24,
    "url_name": "الحوطة",
    "name": "الحوطة",
    "name_en": "Al-Hawta",
    "state_id": 133,
    "order": 9547,
    "order_en": 24,
    "status" :1,
    "cost" :50
  },
  {
    "id": 18311,
    "cities_id": 30,
    "url_name": "الرافدين",
    "name": "الرافدين",
    "name_en": "Al-Rafedain",
    "state_id": 133,
    "order": 9548,
    "order_en": 30,
    "status" :1,
    "cost" :50
  },
  {
    "id": 19005,
    "cities_id": 74,
    "url_name": "عمان",
    "name": "عمان",
    "name_en": "Oman",
    "state_id": 133,
    "order": 9552,
    "order_en": 74,
    "status" :1,
    "cost" :50
  },
  {
    "id": 19007,
    "cities_id": 16,
    "url_name": "شارع-المقاولين",
    "name": "شارع المقاولين",
    "name_en": "Al- Muqaweleen St.",
    "state_id": 133,
    "order": 9553,
    "order_en": 16,
    "status" :1,
    "cost" :50
  },
  {
    "id": 14877,
    "cities_id": 9559,
    "url_name": "أخرى",
    "name": "أخرى",
    "name_en": "Other",
    "state_id": 133,
    "order": 9559,
    "order_en": 9559,
    "status" :1,
    "cost" :50
  },

  {
    "id": 10385,
    "cities_id": 4,
    "url_name": "عنكاوة",
    "name": "عنكاوة",
    "name_en": "Ankawa",
    "state_id": 135,
    "order": 9230,
    "order_en": 4,
    "status" :1,
    "cost" :50
  },
  {
    "id": 10387,
    "cities_id": 27,
    "url_name": "كوران-عنكاوة",
    "name": "كوران عنكاوة",
    "name_en": "Kuran Ankawa",
    "state_id": 135,
    "order": 9231,
    "order_en": 27,
    "status" :1,
    "cost" :50
  },
  {
    "id": 10389,
    "cities_id": 51,
    "url_name": "صلاح-الدين",
    "name": "صلاح الدين",
    "name_en": "Salaheddin",
    "state_id": 135,
    "order": 9232,
    "order_en": 51,
    "status" :1,
    "cost" :50
  },
  {
    "id": 10391,
    "cities_id": 42,
    "url_name": "برلمان",
    "name": "برلمان",
    "name_en": "Parliament",
    "state_id": 135,
    "order": 9233,
    "order_en": 42,
    "status" :1,
    "cost" :50
  },
  {
    "id": 10393,
    "cities_id": 40,
    "url_name": "نشتمان",
    "name": "نشتمان",
    "name_en": "Nishtiman",
    "state_id": 135,
    "order": 9234,
    "order_en": 40,
    "status" :1,
    "cost" :50
  },
  {
    "id": 10399,
    "cities_id": 6,
    "url_name": "ازادي",
    "name": "ازادي",
    "name_en": "Azadi",
    "state_id": 135,
    "order": 9237,
    "order_en": 6,
    "status" :1,
    "cost" :50
  },
  {
    "id": 10401,
    "cities_id": 7,
    "url_name": "ازادي-٢",
    "name": "ازادي ٢",
    "name_en": "Azadi 2",
    "state_id": 135,
    "order": 9238,
    "order_en": 7,
    "status" :1,
    "cost" :50
  },
  {
    "id": 10403,
    "cities_id": 34,
    "url_name": "مستوفي",
    "name": "مستوفي",
    "name_en": "Mastufi",
    "state_id": 135,
    "order": 9239,
    "order_en": 34,
    "status" :1,
    "cost" :50
  },
  {
    "id": 10405,
    "cities_id": 61,
    "url_name": "طيراوة",
    "name": "طيراوة",
    "name_en": "Tiraoh",
    "state_id": 135,
    "order": 9240,
    "order_en": 61,
    "status" :1,
    "cost" :50
  },
  {
    "id": 10407,
    "cities_id": 54,
    "url_name": "شهداء",
    "name": "شهداء",
    "name_en": "Shahidan",
    "state_id": 135,
    "order": 9241,
    "order_en": 54,
    "status" :1,
    "cost" :50
  },
  {
    "id": 10409,
    "cities_id": 43,
    "url_name": "قيصرية",
    "name": "قيصرية",
    "name_en": "Qaisary",
    "state_id": 135,
    "order": 9242,
    "order_en": 43,
    "status" :1,
    "cost" :50
  },
  {
    "id": 10411,
    "cities_id": 5,
    "url_name": "عرب",
    "name": "عرب",
    "name_en": "Araban",
    "state_id": 135,
    "order": 9243,
    "order_en": 5,
    "status" :1,
    "cost" :50
  },
  {
    "id": 10413,
    "cities_id": 60,
    "url_name": "تعجيل",
    "name": "تعجيل",
    "name_en": "Taajeel",
    "state_id": 135,
    "order": 9244,
    "order_en": 60,
    "status" :1,
    "cost" :50
  },
  {
    "id": 10415,
    "cities_id": 65,
    "url_name": "زانياري",
    "name": "زانياري",
    "name_en": "Zaniary",
    "state_id": 135,
    "order": 9245,
    "order_en": 65,
    "status" :1,
    "cost" :50
  },
  {
    "id": 10417,
    "cities_id": 26,
    "url_name": "كوماري",
    "name": "كوماري",
    "name_en": "Komari",
    "state_id": 135,
    "order": 9246,
    "order_en": 26,
    "status" :1,
    "cost" :50
  },
  {
    "id": 10419,
    "cities_id": 48,
    "url_name": "روناكي",
    "name": "روناكي",
    "name_en": "Runaky",
    "state_id": 135,
    "order": 9247,
    "order_en": 48,
    "status" :1,
    "cost" :50
  },
  {
    "id": 10421,
    "cities_id": 50,
    "url_name": "سيداوة",
    "name": "سيداوة",
    "name_en": "Saidawa",
    "state_id": 135,
    "order": 9248,
    "order_en": 50,
    "status" :1,
    "cost" :50
  },
  {
    "id": 10423,
    "cities_id": 18,
    "url_name": "حي-الاسكان",
    "name": "حي الاسكان",
    "name_en": "Iskan",
    "state_id": 135,
    "order": 9249,
    "order_en": 18,
    "status" :1,
    "cost" :50
  },
  {
    "id": 10425,
    "cities_id": 32,
    "url_name": "منتكاوة",
    "name": "منتكاوة",
    "name_en": "Mantikawa",
    "state_id": 135,
    "order": 9250,
    "order_en": 32,
    "status" :1,
    "cost" :50
  },
  {
    "id": 10429,
    "cities_id": 30,
    "url_name": "الماجیداوه",
    "name": "الماجیداوه‌",
    "name_en": "Majidawa",
    "state_id": 135,
    "order": 9252,
    "order_en": 30,
    "status" :1,
    "cost" :50
  },
  {
    "id": 10431,
    "cities_id": 58,
    "url_name": "مقبرة-الجنوب",
    "name": "مقبرة الجنوب",
    "name_en": "South Cemetery",
    "state_id": 135,
    "order": 9253,
    "order_en": 58,
    "status" :1,
    "cost" :50
  },
  {
    "id": 10433,
    "cities_id": 9,
    "url_name": "بهار",
    "name": "بهار",
    "name_en": "Bahar",
    "state_id": 135,
    "order": 9254,
    "order_en": 9,
    "status" :1,
    "cost" :50
  },
  {
    "id": 10435,
    "cities_id": 28,
    "url_name": "كردستان",
    "name": "كردستان",
    "name_en": "Kurdistan",
    "state_id": 135,
    "order": 9255,
    "order_en": 28,
    "status" :1,
    "cost" :50
  },
  {
    "id": 10437,
    "cities_id": 37,
    "url_name": "نوروز",
    "name": "نوروز",
    "name_en": "Nawroz",
    "state_id": 135,
    "order": 9256,
    "order_en": 37,
    "status" :1,
    "cost" :50
  },
  {
    "id": 10439,
    "cities_id": 62,
    "url_name": "تورق",
    "name": "تورق",
    "name_en": "Twraq",
    "state_id": 135,
    "order": 9257,
    "order_en": 62,
    "status" :1,
    "cost" :50
  },
  {
    "id": 10441,
    "cities_id": 53,
    "url_name": "شادی",
    "name": "شادی",
    "name_en": "Shadi",
    "state_id": 135,
    "order": 9258,
    "order_en": 53,
    "status" :1,
    "cost" :50
  },
  {
    "id": 10443,
    "cities_id": 59,
    "url_name": "صناعة-جنوبية",
    "name": "صناعة جنوبية",
    "name_en": "South Industrial",
    "state_id": 135,
    "order": 9259,
    "order_en": 59,
    "status" :1,
    "cost" :50
  },
  {
    "id": 10445,
    "cities_id": 45,
    "url_name": "راستي",
    "name": "راستي",
    "name_en": "Rasty",
    "state_id": 135,
    "order": 9260,
    "order_en": 45,
    "status" :1,
    "cost" :50
  },
  {
    "id": 10447,
    "cities_id": 33,
    "url_name": "١١-اذار",
    "name": "١١ اذار",
    "name_en": "March 11",
    "state_id": 135,
    "order": 9261,
    "order_en": 33,
    "status" :1,
    "cost" :50
  },
  {
    "id": 10449,
    "cities_id": 66,
    "url_name": "زانكو-١",
    "name": "زانكو ١",
    "name_en": "Zanko 1",
    "state_id": 135,
    "order": 9262,
    "order_en": 66,
    "status" :1,
    "cost" :50
  },
  {
    "id": 10451,
    "cities_id": 67,
    "url_name": "زانكو-٢",
    "name": "زانكو ٢",
    "name_en": "Zanko 2",
    "state_id": 135,
    "order": 9263,
    "order_en": 67,
    "status" :1,
    "cost" :50
  },
  {
    "id": 10453,
    "cities_id": 47,
    "url_name": "روشنبیري",
    "name": "روشنبیري",
    "name_en": "Roshanbiry",
    "state_id": 135,
    "order": 9264,
    "order_en": 47,
    "status" :1,
    "cost" :50
  },
  {
    "id": 10457,
    "cities_id": 16,
    "url_name": "حمرین",
    "name": "حمرین",
    "name_en": "Hamreen",
    "state_id": 135,
    "order": 9266,
    "order_en": 16,
    "status" :1,
    "cost" :50
  },
  {
    "id": 10459,
    "cities_id": 56,
    "url_name": "شارواني",
    "name": "شارواني",
    "name_en": "Sharawani",
    "state_id": 135,
    "order": 9267,
    "order_en": 56,
    "status" :1,
    "cost" :50
  },
  {
    "id": 10461,
    "cities_id": 15,
    "url_name": "کلاویز",
    "name": "کلاویز",
    "name_en": "Galawezh",
    "state_id": 135,
    "order": 9268,
    "order_en": 15,
    "status" :1,
    "cost" :50
  },
  {
    "id": 10463,
    "cities_id": 20,
    "url_name": "کاریزان",
    "name": "کاریزان",
    "name_en": "Karezan",
    "state_id": 135,
    "order": 9269,
    "order_en": 20,
    "status" :1,
    "cost" :50
  },
  {
    "id": 10465,
    "cities_id": 8,
    "url_name": "باداوة",
    "name": "باداوة",
    "name_en": "Badawa",
    "state_id": 135,
    "order": 9270,
    "order_en": 8,
    "status" :1,
    "cost" :50
  },
  {
    "id": 10467,
    "cities_id": 12,
    "url_name": "جنار",
    "name": "جنار",
    "name_en": "Chnar",
    "state_id": 135,
    "order": 9271,
    "order_en": 12,
    "status" :1,
    "cost" :50
  },
  {
    "id": 10469,
    "cities_id": 31,
    "url_name": "مامۆستايان",
    "name": "مامۆستايان",
    "name_en": "Mamostiyan",
    "state_id": 135,
    "order": 9272,
    "order_en": 31,
    "status" :1,
    "cost" :50
  },
  {
    "id": 10471,
    "cities_id": 13,
    "url_name": "جوار-جرا",
    "name": "جوار جرا",
    "name_en": "Chwar Chira",
    "state_id": 135,
    "order": 9273,
    "order_en": 13,
    "status" :1,
    "cost" :50
  },
  {
    "id": 10473,
    "cities_id": 3,
    "url_name": "آلعلماء",
    "name": "آلعلماء",
    "name_en": "Al Ulamaa",
    "state_id": 135,
    "order": 9274,
    "order_en": 3,
    "status" :1,
    "cost" :50
  },
  {
    "id": 10475,
    "cities_id": 22,
    "url_name": "خه-بات",
    "name": "خه‌ بات",
    "name_en": "Khah Bat",
    "state_id": 135,
    "order": 9275,
    "order_en": 22,
    "status" :1,
    "cost" :50
  },
  {
    "id": 10477,
    "cities_id": 17,
    "url_name": "هفالان",
    "name": "هفالان",
    "name_en": "Havalan",
    "state_id": 135,
    "order": 9276,
    "order_en": 17,
    "status" :1,
    "cost" :50
  },
  {
    "id": 10479,
    "cities_id": 35,
    "url_name": "المنارة",
    "name": "المنارة",
    "name_en": "Minaret",
    "state_id": 135,
    "order": 9277,
    "order_en": 35,
    "status" :1,
    "cost" :50
  },
  {
    "id": 10481,
    "cities_id": 24,
    "url_name": "كولان-١",
    "name": "كولان ١",
    "name_en": "Kollan 1",
    "state_id": 135,
    "order": 9278,
    "order_en": 24,
    "status" :1,
    "cost" :50
  },
  {
    "id": 10483,
    "cities_id": 25,
    "url_name": "كولان-٢",
    "name": "كولان ٢",
    "name_en": "Kollan 2",
    "state_id": 135,
    "order": 9279,
    "order_en": 25,
    "status" :1,
    "cost" :50
  },
  {
    "id": 10485,
    "cities_id": 64,
    "url_name": "زاكروس",
    "name": "زاكروس",
    "name_en": "Zakros",
    "state_id": 135,
    "order": 9280,
    "order_en": 64,
    "status" :1,
    "cost" :50
  },
  {
    "id": 10487,
    "cities_id": 49,
    "url_name": "سفین",
    "name": "سفین",
    "name_en": "Safeen",
    "state_id": 135,
    "order": 9281,
    "order_en": 49,
    "status" :1,
    "cost" :50
  },
  {
    "id": 10489,
    "cities_id": 44,
    "url_name": "رابرين",
    "name": "رابرين",
    "name_en": "Raparen",
    "state_id": 135,
    "order": 9282,
    "order_en": 44,
    "status" :1,
    "cost" :50
  },
  {
    "id": 10491,
    "cities_id": 29,
    "url_name": "كويستان",
    "name": "كويستان",
    "name_en": "Kwestan",
    "state_id": 135,
    "order": 9283,
    "order_en": 29,
    "status" :1,
    "cost" :50
  },
  {
    "id": 10493,
    "cities_id": 19,
    "url_name": "كاني",
    "name": "كاني",
    "name_en": "Kani",
    "state_id": 135,
    "order": 9284,
    "order_en": 19,
    "status" :1,
    "cost" :50
  },
  {
    "id": 10495,
    "cities_id": 57,
    "url_name": "شورش",
    "name": "شورش",
    "name_en": "Shorsh",
    "state_id": 135,
    "order": 9285,
    "order_en": 57,
    "status" :1,
    "cost" :50
  },
  {
    "id": 10497,
    "cities_id": 23,
    "url_name": "خانزاد",
    "name": "خانزاد",
    "name_en": "Khanzad",
    "state_id": 135,
    "order": 9286,
    "order_en": 23,
    "status" :1,
    "cost" :50
  },
  {
    "id": 10499,
    "cities_id": 11,
    "url_name": "برايتي",
    "name": "برايتي",
    "name_en": "Brayaty",
    "state_id": 135,
    "order": 9287,
    "order_en": 11,
    "status" :1,
    "cost" :50
  },
  {
    "id": 10501,
    "cities_id": 39,
    "url_name": "هولیر-الجدیدة",
    "name": "هولیر الجدیدة",
    "name_en": "New Hawler",
    "state_id": 135,
    "order": 9288,
    "order_en": 39,
    "status" :1,
    "cost" :50
  },
  {
    "id": 10503,
    "cities_id": 52,
    "url_name": "سربستي",
    "name": "سربستي",
    "name_en": "Sarbasti",
    "state_id": 135,
    "order": 9289,
    "order_en": 52,
    "status" :1,
    "cost" :50
  },
  {
    "id": 10505,
    "cities_id": 1,
    "url_name": "مدينة-أحلام",
    "name": "مدينة أحلام",
    "name_en": "Ahlam City",
    "state_id": 135,
    "order": 9290,
    "order_en": 1,
    "status" :1,
    "cost" :50
  },
  {
    "id": 10509,
    "cities_id": 2,
    "url_name": "العدالة",
    "name": "العدالة",
    "name_en": "Al Adalah",
    "state_id": 135,
    "order": 9292,
    "order_en": 2,
    "status" :1,
    "cost" :50
  },
  {
    "id": 10513,
    "cities_id": 38,
    "url_name": "ناز",
    "name": "ناز",
    "name_en": "Naz",
    "state_id": 135,
    "order": 9294,
    "order_en": 38,
    "status" :1,
    "cost" :50
  },
  {
    "id": 10515,
    "cities_id": 36,
    "url_name": "موفتي",
    "name": "موفتي",
    "name_en": "Mufti",
    "state_id": 135,
    "order": 9295,
    "order_en": 36,
    "status" :1,
    "cost" :50
  },
  {
    "id": 10517,
    "cities_id": 14,
    "url_name": "قلعة-أربيل",
    "name": "قلعة أربيل",
    "name_en": "Citadel Of  Erbil",
    "state_id": 135,
    "order": 9296,
    "order_en": 14,
    "status" :1,
    "cost" :50
  },
  {
    "id": 10519,
    "cities_id": 63,
    "url_name": "الوزيرية",
    "name": "الوزيرية",
    "name_en": "Wazireya",
    "state_id": 135,
    "order": 9297,
    "order_en": 63,
    "status" :1,
    "cost" :50
  },
  {
    "id": 13198,
    "cities_id": 21,
    "url_name": "الكسزنزانية",
    "name": "الكسزنزانية",
    "name_en": "Kasnazan",
    "state_id": 135,
    "order": 9299,
    "order_en": 21,
    "status" :1,
    "cost" :50
  },
  {
    "id": 13200,
    "cities_id": 55,
    "url_name": "شقلاوة",
    "name": "شقلاوة",
    "name_en": "Shaqlawa",
    "state_id": 135,
    "order": 9300,
    "order_en": 55,
    "status" :1,
    "cost" :50
  },
  {
    "id": 13216,
    "cities_id": 46,
    "url_name": "رزكاري",
    "name": "رزكاري",
    "name_en": "Rizgari",
    "state_id": 135,
    "order": 9301,
    "order_en": 46,
    "status" :1,
    "cost" :50
  },
  {
    "id": 15544,
    "cities_id": 10,
    "url_name": "بختياري",
    "name": "بختياري",
    "name_en": "Bakhtiari",
    "state_id": 135,
    "order": 9303,
    "order_en": 10,
    "status" :1,
    "cost" :50
  },
  {
    "id": 15546,
    "cities_id": 41,
    "url_name": "نوسران",
    "name": "نوسران",
    "name_en": "Nuseran",
    "state_id": 135,
    "order": 9304,
    "order_en": 41,
    "status" :1,
    "cost" :50
  },
  {
    "id": 14878,
    "cities_id": 9313,
    "url_name": "أخرى",
    "name": "أخرى",
    "name_en": "Other",
    "state_id": 135,
    "order": 9313,
    "order_en": 9313,
    "status" :1,
    "cost" :50
  },
  {
    "id": 10641,
    "cities_id": 19,
    "url_name": "الصناعية",
    "name": "الصناعية",
    "name_en": "Al Sanaia",
    "state_id": 139,
    "order": 9358,
    "order_en": 19,
    "status" :1,
    "cost" :50
  },
  {
    "id": 10643,
    "cities_id": 7,
    "url_name": "الانصار",
    "name": "الانصار",
    "name_en": "Al Ansar",
    "state_id": 139,
    "order": 9359,
    "order_en": 7,
    "status" :1,
    "cost" :50
  },
  {
    "id": 10645,
    "cities_id": 15,
    "url_name": "الق-دس",
    "name": "القـدس",
    "name_en": "Al Quds",
    "state_id": 139,
    "order": 9360,
    "order_en": 15,
    "status" :1,
    "cost" :50
  },
  {
    "id": 10647,
    "cities_id": 41,
    "url_name": "الامام-المهدي",
    "name": "الامام المهدي",
    "name_en": "Imam Mahdi",
    "state_id": 139,
    "order": 9361,
    "order_en": 41,
    "status" :1,
    "cost" :50
  },
  {
    "id": 10649,
    "cities_id": 12,
    "url_name": "المعلمين",
    "name": "المعلمين",
    "name_en": "Al Mualmeen",
    "state_id": 139,
    "order": 9362,
    "order_en": 12,
    "status" :1,
    "cost" :50
  },
  {
    "id": 10651,
    "cities_id": 4,
    "url_name": "عدن",
    "name": "عدن",
    "name_en": "Aden",
    "state_id": 139,
    "order": 9363,
    "order_en": 4,
    "status" :1,
    "cost" :50
  },
  {
    "id": 10653,
    "cities_id": 21,
    "url_name": "السواق",
    "name": "السواق",
    "name_en": "Al Sook",
    "state_id": 139,
    "order": 9364,
    "order_en": 21,
    "status" :1,
    "cost" :50
  },
  {
    "id": 10655,
    "cities_id": 23,
    "url_name": "الزهراء",
    "name": "الزهراء",
    "name_en": "Al Zahraa",
    "state_id": 139,
    "order": 9365,
    "order_en": 23,
    "status" :1,
    "cost" :50
  },
  {
    "id": 10657,
    "cities_id": 31,
    "url_name": "القادسية",
    "name": "القادسية",
    "name_en": "Al-Qadisiyyah",
    "state_id": 139,
    "order": 9366,
    "order_en": 31,
    "status" :1,
    "cost" :50
  },
  {
    "id": 10659,
    "cities_id": 6,
    "url_name": "الامير",
    "name": "الامير",
    "name_en": "Al Ameer",
    "state_id": 139,
    "order": 9367,
    "order_en": 6,
    "status" :1,
    "cost" :50
  },
  {
    "id": 10661,
    "cities_id": 9,
    "url_name": "الاشتراكي",
    "name": "الاشتراكي",
    "name_en": "Al Ishtiraki",
    "state_id": 139,
    "order": 9368,
    "order_en": 9,
    "status" :1,
    "cost" :50
  },
  {
    "id": 10663,
    "cities_id": 17,
    "url_name": "السعد",
    "name": "السعد",
    "name_en": "Al Saad",
    "state_id": 139,
    "order": 9369,
    "order_en": 17,
    "status" :1,
    "cost" :50
  },
  {
    "id": 10665,
    "cities_id": 38,
    "url_name": "الحنانة",
    "name": "الحنانة",
    "name_en": "Hannana",
    "state_id": 139,
    "order": 9370,
    "order_en": 38,
    "status" :1,
    "cost" :50
  },
  {
    "id": 10667,
    "cities_id": 40,
    "url_name": "الحسين",
    "name": "الحسين",
    "name_en": "Hussein",
    "state_id": 139,
    "order": 9371,
    "order_en": 40,
    "status" :1,
    "cost" :50
  },
  {
    "id": 10669,
    "cities_id": 42,
    "url_name": "الكرامة",
    "name": "الكرامة",
    "name_en": "Karama",
    "state_id": 139,
    "order": 9372,
    "order_en": 42,
    "status" :1,
    "cost" :50
  },
  {
    "id": 10671,
    "cities_id": 37,
    "url_name": "الغدير",
    "name": "الغدير",
    "name_en": "Ghadeer",
    "state_id": 139,
    "order": 9373,
    "order_en": 37,
    "status" :1,
    "cost" :50
  },
  {
    "id": 10673,
    "cities_id": 8,
    "url_name": "الفرات",
    "name": "الفرات",
    "name_en": "Al Furat",
    "state_id": 139,
    "order": 9374,
    "order_en": 8,
    "status" :1,
    "cost" :50
  },
  {
    "id": 10675,
    "cities_id": 5,
    "url_name": "العدالة",
    "name": "العدالة",
    "name_en": "Al Adalah",
    "state_id": 139,
    "order": 9375,
    "order_en": 5,
    "status" :1,
    "cost" :50
  },
  {
    "id": 10677,
    "cities_id": 10,
    "url_name": "الجامعة",
    "name": "الجامعة",
    "name_en": "Al Jamaa",
    "state_id": 139,
    "order": 9376,
    "order_en": 10,
    "status" :1,
    "cost" :50
  },
  {
    "id": 10679,
    "cities_id": 18,
    "url_name": "السلام",
    "name": "السلام",
    "name_en": "Al Salaam",
    "state_id": 139,
    "order": 9377,
    "order_en": 18,
    "status" :1,
    "cost" :50
  },
  {
    "id": 10681,
    "cities_id": 47,
    "url_name": "الغري-الثاني",
    "name": "الغري الثاني",
    "name_en": "Second Ghari",
    "state_id": 139,
    "order": 9378,
    "order_en": 47,
    "status" :1,
    "cost" :50
  },
  {
    "id": 10683,
    "cities_id": 16,
    "url_name": "الرحمة",
    "name": "الرحمة",
    "name_en": "Al Rahmah",
    "state_id": 139,
    "order": 9379,
    "order_en": 16,
    "status" :1,
    "cost" :50
  },
  {
    "id": 10685,
    "cities_id": 20,
    "url_name": "الشهداء",
    "name": "الشهداء",
    "name_en": "Al Shuhdaa",
    "state_id": 139,
    "order": 9380,
    "order_en": 20,
    "status" :1,
    "cost" :50
  },
  {
    "id": 10687,
    "cities_id": 46,
    "url_name": "الرسالة",
    "name": "الرسالة",
    "name_en": "Risala",
    "state_id": 139,
    "order": 9381,
    "order_en": 46,
    "status" :1,
    "cost" :50
  },
  {
    "id": 10689,
    "cities_id": 2,
    "url_name": "ابو-طالب",
    "name": "ابو طالب",
    "name_en": "Abou Talib",
    "state_id": 139,
    "order": 9382,
    "order_en": 2,
    "status" :1,
    "cost" :50
  },
  {
    "id": 10691,
    "cities_id": 34,
    "url_name": "المهندسين",
    "name": "المهندسين",
    "name_en": "Almuhandseen",
    "state_id": 139,
    "order": 9383,
    "order_en": 34,
    "status" :1,
    "cost" :50
  },
  {
    "id": 10693,
    "cities_id": 13,
    "url_name": "النصر",
    "name": "النصر",
    "name_en": "Al Nasr",
    "state_id": 139,
    "order": 9384,
    "order_en": 13,
    "status" :1,
    "cost" :50
  },
  {
    "id": 10695,
    "cities_id": 33,
    "url_name": "الميلاد",
    "name": "الميلاد",
    "name_en": "Almilad",
    "state_id": 139,
    "order": 9385,
    "order_en": 33,
    "status" :1,
    "cost" :50
  },
  {
    "id": 10697,
    "cities_id": 36,
    "url_name": "الفاو",
    "name": "الفاو",
    "name_en": "Faw",
    "state_id": 139,
    "order": 9386,
    "order_en": 36,
    "status" :1,
    "cost" :50
  },
  {
    "id": 10699,
    "cities_id": 14,
    "url_name": "النداء",
    "name": "النداء",
    "name_en": "Al Nidaa",
    "state_id": 139,
    "order": 9387,
    "order_en": 14,
    "status" :1,
    "cost" :50
  },
  {
    "id": 10701,
    "cities_id": 49,
    "url_name": "الوفاء",
    "name": "الوفاء",
    "name_en": "alwafaa",
    "state_id": 139,
    "order": 9388,
    "order_en": 49,
    "status" :1,
    "cost" :50
  },
  {
    "id": 10703,
    "cities_id": 35,
    "url_name": "الشعراء",
    "name": "الشعراء",
    "name_en": "Ash Shuara",
    "state_id": 139,
    "order": 9389,
    "order_en": 35,
    "status" :1,
    "cost" :50
  },
  {
    "id": 10705,
    "cities_id": 22,
    "url_name": "العروبة",
    "name": "العروبة",
    "name_en": "Al Uruba",
    "state_id": 139,
    "order": 9390,
    "order_en": 22,
    "status" :1,
    "cost" :50
  },
  {
    "id": 10707,
    "cities_id": 27,
    "url_name": "الكرمة",
    "name": "الكرمة",
    "name_en": "Al-Karma",
    "state_id": 139,
    "order": 9391,
    "order_en": 27,
    "status" :1,
    "cost" :50
  },
  {
    "id": 10709,
    "cities_id": 11,
    "url_name": "المشراق",
    "name": "المشراق",
    "name_en": "Al Mishraq",
    "state_id": 139,
    "order": 9392,
    "order_en": 11,
    "status" :1,
    "cost" :50
  },
  {
    "id": 10711,
    "cities_id": 48,
    "url_name": "وادي-السلام",
    "name": "وادي السلام",
    "name_en": "Wadi-us-Salaam",
    "state_id": 139,
    "order": 9393,
    "order_en": 48,
    "status" :1,
    "cost" :50
  },
  {
    "id": 13068,
    "cities_id": 30,
    "url_name": "المشخاب",
    "name": "المشخاب",
    "name_en": "Al-Meshkhab",
    "state_id": 139,
    "order": 9394,
    "order_en": 30,
    "status" :1,
    "cost" :50
  },
  {
    "id": 13070,
    "cities_id": 24,
    "url_name": "العباسية",
    "name": "العباسية",
    "name_en": "Al-Abassiya",
    "state_id": 139,
    "order": 9395,
    "order_en": 24,
    "status" :1,
    "cost" :50
  },
  {
    "id": 13072,
    "cities_id": 32,
    "url_name": "البو-حداري",
    "name": "البو حداري",
    "name_en": "Albu Hadari",
    "state_id": 139,
    "order": 9396,
    "order_en": 32,
    "status" :1,
    "cost" :50
  },
  {
    "id": 13074,
    "cities_id": 43,
    "url_name": "الكوفة",
    "name": "الكوفة",
    "name_en": "Kufa",
    "state_id": 139,
    "order": 9397,
    "order_en": 43,
    "status" :1,
    "cost" :50
  },
  {
    "id": 13076,
    "cities_id": 44,
    "url_name": "حي-ميسان",
    "name": "حي ميسان",
    "name_en": "Misan",
    "state_id": 139,
    "order": 9398,
    "order_en": 44,
    "status" :1,
    "cost" :50
  },
  {
    "id": 13078,
    "cities_id": 28,
    "url_name": "الكفل",
    "name": "الكفل",
    "name_en": "Al-Kifil",
    "state_id": 139,
    "order": 9399,
    "order_en": 28,
    "status" :1,
    "cost" :50
  },
  {
    "id": 13080,
    "cities_id": 29,
    "url_name": "المناذرة",
    "name": "المناذرة",
    "name_en": "Al-Manathera",
    "state_id": 139,
    "order": 9400,
    "order_en": 29,
    "status" :1,
    "cost" :50
  },
  {
    "id": 13082,
    "cities_id": 45,
    "url_name": "علوة-فحل",
    "name": "علوة فحل",
    "name_en": "Olwat Fahil",
    "state_id": 139,
    "order": 9401,
    "order_en": 45,
    "status" :1,
    "cost" :50
  },
  {
    "id": 13084,
    "cities_id": 39,
    "url_name": "الحيدرية",
    "name": "الحيدرية",
    "name_en": "Hayderiyh",
    "state_id": 139,
    "order": 9402,
    "order_en": 39,
    "status" :1,
    "cost" :50
  },
  {
    "id": 13086,
    "cities_id": 1,
    "url_name": "حي-17-تموز",
    "name": "حي 17 تموز",
    "name_en": "17 July",
    "state_id": 139,
    "order": 9403,
    "order_en": 1,
    "status" :1,
    "cost" :50
  },
  {
    "id": 13088,
    "cities_id": 25,
    "url_name": "حي-العسكري",
    "name": "حي العسكري",
    "name_en": "Al-Askari",
    "state_id": 139,
    "order": 9404,
    "order_en": 25,
    "status" :1,
    "cost" :50
  },
  {
    "id": 13090,
    "cities_id": 26,
    "url_name": "الحرية",
    "name": "الحرية",
    "name_en": "Al-Hurria",
    "state_id": 139,
    "order": 9405,
    "order_en": 26,
    "status" :1,
    "cost" :50
  },
  {
    "id": 13092,
    "cities_id": 3,
    "url_name": "أبو-صخير",
    "name": "أبو صخير",
    "name_en": "Abu Sakhair",
    "state_id": 139,
    "order": 9406,
    "order_en": 3,
    "status" :1,
    "cost" :50
  },
  {
    "id": 19019,
    "cities_id": 9413,
    "url_name": "مجمع-الاميرات-السكني",
    "name": "مجمع الاميرات السكني",
    "name_en": "Princesses Residential Complex",
    "state_id": 139,
    "order": 9413,
    "order_en": 9413,
    "status" :1,
    "cost" :50
  },
  {
    "id": 19021,
    "cities_id": 9414,
    "url_name": "مجمع-الكرار-السكني",
    "name": "مجمع الكرار السكني",
    "name_en": "Al-Karrar Residential Complex",
    "state_id": 139,
    "order": 9414,
    "order_en": 9414,
    "status" :1,
    "cost" :50
  },
  {
    "id": 19023,
    "cities_id": 9415,
    "url_name": "مجمع-سلطان-السكني",
    "name": "مجمع سلطان السكني",
    "name_en": "Sultan Residential Complex",
    "state_id": 139,
    "order": 9415,
    "order_en": 9415,
    "status" :1,
    "cost" :50
  },
  {
    "id": 19025,
    "cities_id": 9416,
    "url_name": "مجمع-الزهراء-السكني",
    "name": "مجمع الزهراء السكني",
    "name_en": "Al-Zahraa Residential Complex",
    "state_id": 139,
    "order": 9416,
    "order_en": 9416,
    "status" :1,
    "cost" :50
  },
  {
    "id": 19027,
    "cities_id": 9417,
    "url_name": "مجمع-النخيل-السكني",
    "name": "مجمع النخيل السكني",
    "name_en": "Al-Nakheel Residential Complex",
    "state_id": 139,
    "order": 9417,
    "order_en": 9417,
    "status" :1,
    "cost" :50
  },
  {
    "id": 19029,
    "cities_id": 9418,
    "url_name": "قرية-الغدير-السكنية",
    "name": "قرية الغدير السكنية",
    "name_en": "Al-Ghadeer Residential Complex",
    "state_id": 139,
    "order": 9418,
    "order_en": 9418,
    "status" :1,
    "cost" :50
  },
  {
    "id": 19031,
    "cities_id": 9419,
    "url_name": "مجمع-بوابة-النجف-السكني",
    "name": "مجمع بوابة النجف السكني",
    "name_en": "Bawabat Al-NAjaf Residential Complex",
    "state_id": 139,
    "order": 9419,
    "order_en": 9419,
    "status" :1,
    "cost" :50
  },
  {
    "id": 19033,
    "cities_id": 9420,
    "url_name": "مجمع-الحسين-السكني",
    "name": "مجمع الحسين السكني",
    "name_en": "Al-Hussein Residential Complex",
    "state_id": 139,
    "order": 9420,
    "order_en": 9420,
    "status" :1,
    "cost" :50
  },
  {
    "id": 19035,
    "cities_id": 9421,
    "url_name": "مدينة-ابو-تراب-السكنية",
    "name": "مدينة ابو تراب السكنية",
    "name_en": "Abu Turab Residential Complex",
    "state_id": 139,
    "order": 9421,
    "order_en": 9421,
    "status" :1,
    "cost" :50
  },
  {
    "id": 14879,
    "cities_id": 9425,
    "url_name": "أخرى",
    "name": "أخرى",
    "name_en": "Other",
    "state_id": 139,
    "order": 9425,
    "order_en": 9425,
    "status" :1,
    "cost" :50
  },

  {
    "id": 15548,
    "cities_id": 1,
    "url_name": "البلدية",
    "name": "البلدية",
    "name_en": "Al-Baladiya",
    "state_id": 140,
    "order": 2,
    "order_en": 1,
    "status" :1,
    "cost" :50
  },
  {
    "id": 15550,
    "cities_id": 2,
    "url_name": "الضباط",
    "name": "الضباط",
    "name_en": "Al-Dobbat",
    "state_id": 140,
    "order": 3,
    "order_en": 2,
    "status" :1,
    "cost" :50
  },
  {
    "id": 15552,
    "cities_id": 3,
    "url_name": "الحسين",
    "name": "الحسين",
    "name_en": "Al-Hussein",
    "state_id": 140,
    "order": 4,
    "order_en": 3,
    "status" :1,
    "cost" :50
  },
  {
    "id": 15554,
    "cities_id": 4,
    "url_name": "حي-النقيب",
    "name": "حي النقيب",
    "name_en": "Hayi AlNaqib",
    "state_id": 140,
    "order": 5,
    "order_en": 4,
    "status" :1,
    "cost" :50
  },
  {
    "id": 15556,
    "cities_id": 5,
    "url_name": "عون",
    "name": "عون",
    "name_en": "Oun",
    "state_id": 140,
    "order": 6,
    "order_en": 5,
    "status" :1,
    "cost" :50
  },
  {
    "id": 14880,
    "cities_id": 15,
    "url_name": "أخرى",
    "name": "أخرى",
    "name_en": "Other",
    "state_id": 140,
    "order": 15,
    "order_en": 15,
    "status" :1,
    "cost" :50
  },{
  "id": 12822,
  "cities_id": 8,
  "url_name": "تكريت",
  "name": "تكريت",
  "name_en": "Tikrit",
  "state_id": 141,
  "order": 1,
  "order_en": 8
},
  {
    "id": 12832,
    "cities_id": 5,
    "url_name": "قضاء-الدجيل",
    "name": "قضاء الدجيل",
    "name_en": "Dejail",
    "state_id": 141,
    "order": 2,
    "order_en": 5,
    "status" :1,
    "cost" :50
  },
  {
    "id": 12834,
    "cities_id": 9,
    "url_name": "الزهراء",
    "name": "الزهراء",
    "name_en": "Zahra",
    "state_id": 141,
    "order": 3,
    "order_en": 9,
    "status" :1,
    "cost" :50
  },
  {
    "id": 12836,
    "cities_id": 7,
    "url_name": "الشهداء",
    "name": "الشهداء",
    "name_en": "Shuhada",
    "state_id": 141,
    "order": 4,
    "order_en": 7,
    "status" :1,
    "cost" :50
  },
  {
    "id": 12838,
    "cities_id": 1,
    "url_name": "حي-العصري",
    "name": "حي العصري",
    "name_en": "Al Asrry district",
    "state_id": 141,
    "order": 5,
    "order_en": 1,
    "status" :1,
    "cost" :50
  },
  {
    "id": 12840,
    "cities_id": 6,
    "url_name": "سامراء",
    "name": "سامراء",
    "name_en": "Samarra",
    "state_id": 141,
    "order": 6,
    "order_en": 6,
    "status" :1,
    "cost" :50
  },
  {
    "id": 12842,
    "cities_id": 3,
    "url_name": "بيجي",
    "name": "بيجي",
    "name_en": "Baiji",
    "state_id": 141,
    "order": 7,
    "order_en": 3,
    "status" :1,
    "cost" :50
  },
  {
    "id": 15564,
    "cities_id": 4,
    "url_name": "بلد",
    "name": "بلد",
    "name_en": "Balad",
    "state_id": 141,
    "order": 9,
    "order_en": 4,
    "status" :1,
    "cost" :50
  },
  {
    "id": 18315,
    "cities_id": 2,
    "url_name": "الضلوعية",
    "name": "الضلوعية",
    "name_en": "Al Duloiya",
    "state_id": 141,
    "order": 10,
    "order_en": 2,
    "status" :1,
    "cost" :50
  },
  {
    "id": 14881,
    "cities_id": 19,
    "url_name": "أخرى",
    "name": "أخرى",
    "name_en": "Other",
    "state_id": 141,
    "order": 19,
    "order_en": 19,
    "status" :1,
    "cost" :50
  },
  {
    "id": 15566,
    "cities_id": 1,
    "url_name": "المنطقة-الصناعية",
    "name": "المنطقة الصناعية",
    "name_en": "Industrial Area",
    "state_id": 143,
    "order": 1,
    "order_en": 1,
    "status" :1,
    "cost" :50
  },
  {
    "id": 19044,
    "cities_id": 3,
    "url_name": "كانيماران",
    "name": "كانيماران",
    "name_en": "Kanymaran",
    "state_id": 143,
    "order": 2,
    "order_en": 3,
    "status" :1,
    "cost" :50
  },
  {
    "id": 18317,
    "cities_id": 2,
    "url_name": "كلار",
    "name": "كلار",
    "name_en": "Kalar",
    "state_id": 143,
    "order": 3,
    "order_en": 2,
    "status" :1,
    "cost" :50
  },
  {
    "id": 14882,
    "cities_id": 6,
    "url_name": "أخرى",
    "name": "أخرى",
    "name_en": "Other",
    "state_id": 143,
    "order": 6,
    "order_en": 6,
    "status" :1,
    "cost" :50
  },

  {
    "id": 13202,
    "cities_id": 4,
    "url_name": "التأميم",
    "name": "التأميم",
    "name_en": "Al-Tamim",
    "state_id": 144,
    "order": 1,
    "order_en": 4,
    "status" :1,
    "cost" :50
  },
  {
    "id": 13214,
    "cities_id": 6,
    "url_name": "الحديثة",
    "name": "الحديثة",
    "name_en": "Haditha",
    "state_id": 144,
    "order": 2,
    "order_en": 6,
    "status" :1,
    "cost" :50
  },
  {
    "id": 19042,
    "cities_id": 2,
    "url_name": "الخالدية",
    "name": "الخالدية",
    "name_en": "Al-Khalidya",
    "state_id": 144,
    "order": 3,
    "order_en": 2,
    "status" :1,
    "cost" :50
  },
  {
    "id": 13204,
    "cities_id": 8,
    "url_name": "الرمادي",
    "name": "الرمادي",
    "name_en": "Ramadi",
    "state_id": 144,
    "order": 4,
    "order_en": 8,
    "status" :1,
    "cost" :50
  },
  {
    "id": 13212,
    "cities_id": 10,
    "url_name": "الصقلاوية",
    "name": "الصقلاوية",
    "name_en": "Saqlawia",
    "state_id": 144,
    "order": 5,
    "order_en": 10,
    "status" :1,
    "cost" :50
  },
  {
    "id": 13206,
    "cities_id": 5,
    "url_name": "الصوفية",
    "name": "الصوفية",
    "name_en": "Alsufia",
    "state_id": 144,
    "order": 6,
    "order_en": 5,
    "status" :1,
    "cost" :50
  },
  {
    "id": 13210,
    "cities_id": 3,
    "url_name": "العبيدي",
    "name": "العبيدي",
    "name_en": "Al-Obaidy",
    "state_id": 144,
    "order": 7,
    "order_en": 3,
    "status" :1,
    "cost" :50
  },
  {
    "id": 13208,
    "cities_id": 1,
    "url_name": "الفلوجة",
    "name": "الفلوجة",
    "name_en": "Al-Fallujah",
    "state_id": 144,
    "order": 8,
    "order_en": 1,
    "status" :1,
    "cost" :50
  },
  {
    "id": 15536,
    "cities_id": 9,
    "url_name": "سبيلك",
    "name": "سبيلك",
    "name_en": "Sabilik",
    "state_id": 144,
    "order": 9,
    "order_en": 9,
    "status" :1,
    "cost" :50
  },
  {
    "id": 19072,
    "cities_id": 7,
    "url_name": "هيت",
    "name": "هيت",
    "name_en": "Hit",
    "state_id": 144,
    "order": 10,
    "order_en": 7,
    "status" :1,
    "cost" :50
  },
  {
    "id": 14883,
    "cities_id": 13,
    "url_name": "أخرى",
    "name": "أخرى",
    "name_en": "Other",
    "state_id": 144,
    "order": 13,
    "order_en": 13,
    "status" :1,
    "cost" :50
  },
  {
    "id": 13016,
    "cities_id": 23,
    "url_name": "الكفل",
    "name": "الكفل",
    "name_en": "Kafel",
    "state_id": 188,
    "order": 1,
    "order_en": 23,
    "status" :1,
    "cost" :50
  },
  {
    "id": 13018,
    "cities_id": 12,
    "url_name": "المحاويل",
    "name": "المحاويل",
    "name_en": "Al-Mahawil",
    "state_id": 188,
    "order": 2,
    "order_en": 12,
    "status" :1,
    "cost" :50
  },
  {
    "id": 13020,
    "cities_id": 7,
    "url_name": "الهاشمية",
    "name": "الهاشمية",
    "name_en": "Al-Hashimiyah",
    "state_id": 188,
    "order": 3,
    "order_en": 7,
    "status" :1,
    "cost" :50
  },
  {
    "id": 13022,
    "cities_id": 15,
    "url_name": "القاسم",
    "name": "القاسم",
    "name_en": "Al-Qasim",
    "state_id": 188,
    "order": 4,
    "order_en": 15,
    "status" :1,
    "cost" :50
  },
  {
    "id": 13024,
    "cities_id": 8,
    "url_name": "الحلة",
    "name": "الحلة",
    "name_en": "Al-Hilla",
    "state_id": 188,
    "order": 5,
    "order_en": 8,
    "status" :1,
    "cost" :50
  },
  {
    "id": 13026,
    "cities_id": 4,
    "url_name": "حي-العسكري",
    "name": "حي العسكري",
    "name_en": "Al-Askari",
    "state_id": 188,
    "order": 6,
    "order_en": 4,
    "status" :1,
    "cost" :50
  },
  {
    "id": 13028,
    "cities_id": 1,
    "url_name": "شارع-30",
    "name": "شارع 30",
    "name_en": "30 Rd",
    "state_id": 188,
    "order": 7,
    "order_en": 1,
    "status" :1,
    "cost" :50
  },
  {
    "id": 13030,
    "cities_id": 25,
    "url_name": "جسر-سيف-سعد",
    "name": "جسر سيف سعد",
    "name_en": "Saif Said",
    "state_id": 188,
    "order": 8,
    "order_en": 25,
    "status" :1,
    "cost" :50
  },
  {
    "id": 13032,
    "cities_id": 26,
    "url_name": "سنجار",
    "name": "سنجار",
    "name_en": "Sinjar",
    "state_id": 188,
    "order": 9,
    "order_en": 26,
    "status" :1,
    "cost" :50
  },
  {
    "id": 13034,
    "cities_id": 9,
    "url_name": "حي-الحسين",
    "name": "حي الحسين",
    "name_en": "Al-Hussain",
    "state_id": 188,
    "order": 10,
    "order_en": 9,
    "status" :1,
    "cost" :50
  },
  {
    "id": 13036,
    "cities_id": 11,
    "url_name": "الجمعية",
    "name": "الجمعية",
    "name_en": "Al-Jam'ia",
    "state_id": 188,
    "order": 11,
    "order_en": 11,
    "status" :1,
    "cost" :50
  },
  {
    "id": 13038,
    "cities_id": 5,
    "url_name": "البكرية",
    "name": "البكرية",
    "name_en": "Al-Bakarya",
    "state_id": 188,
    "order": 12,
    "order_en": 5,
    "status" :1,
    "cost" :50
  },
  {
    "id": 13040,
    "cities_id": 10,
    "url_name": "حي-الإمام",
    "name": "حي الإمام",
    "name_en": "Al-Imam",
    "state_id": 188,
    "order": 13,
    "order_en": 10,
    "status" :1,
    "cost" :50
  },
  {
    "id": 13042,
    "cities_id": 17,
    "url_name": "الحي-الصناعي",
    "name": "الحي الصناعي",
    "name_en": "Al-Sina'i",
    "state_id": 188,
    "order": 14,
    "order_en": 17,
    "status" :1,
    "cost" :50
  },
  {
    "id": 13044,
    "cities_id": 21,
    "url_name": "بنشة",
    "name": "بنشة",
    "name_en": "Bansha",
    "state_id": 188,
    "order": 15,
    "order_en": 21,
    "status" :1,
    "cost" :50
  },
  {
    "id": 13046,
    "cities_id": 14,
    "url_name": "حي-النصر",
    "name": "حي النصر",
    "name_en": "Al-Nasr",
    "state_id": 188,
    "order": 16,
    "order_en": 14,
    "status" :1,
    "cost" :50
  },
  {
    "id": 13048,
    "cities_id": 20,
    "url_name": "حي-بابل",
    "name": "حي بابل",
    "name_en": "Babel",
    "state_id": 188,
    "order": 17,
    "order_en": 20,
    "status" :1,
    "cost" :50
  },
  {
    "id": 13050,
    "cities_id": 24,
    "url_name": "مسيب",
    "name": "مسيب",
    "name_en": "Musayyib",
    "state_id": 188,
    "order": 18,
    "order_en": 24,
    "status" :1,
    "cost" :50
  },
  {
    "id": 13052,
    "cities_id": 22,
    "url_name": "الإسكندرية",
    "name": "الإسكندرية",
    "name_en": "Iskandariya",
    "state_id": 188,
    "order": 19,
    "order_en": 22,
    "status" :1,
    "cost" :50
  },
  {
    "id": 13054,
    "cities_id": 2,
    "url_name": "أبي-غرق",
    "name": "أبي غرق",
    "name_en": "Abu Gharaq",
    "state_id": 188,
    "order": 20,
    "order_en": 2,
    "status" :1,
    "cost" :50
  },
  {
    "id": 13056,
    "cities_id": 6,
    "url_name": "الحمزة",
    "name": "الحمزة",
    "name_en": "Al-Hamza",
    "state_id": 188,
    "order": 21,
    "order_en": 6,
    "status" :1,
    "cost" :50
  },
  {
    "id": 13058,
    "cities_id": 16,
    "url_name": "الشوملي",
    "name": "الشوملي",
    "name_en": "Al-Shomali",
    "state_id": 188,
    "order": 22,
    "order_en": 16,
    "status" :1,
    "cost" :50
  },
  {
    "id": 13060,
    "cities_id": 13,
    "url_name": "المهندسين",
    "name": "المهندسين",
    "name_en": "Al-Muhandesin",
    "state_id": 188,
    "order": 23,
    "order_en": 13,
    "status" :1,
    "cost" :50
  },
  {
    "id": 13062,
    "cities_id": 3,
    "url_name": "الأكرمين",
    "name": "الأكرمين",
    "name_en": "Al-Akrameen",
    "state_id": 188,
    "order": 24,
    "order_en": 3,
    "status" :1,
    "cost" :50
  },
  {
    "id": 13064,
    "cities_id": 19,
    "url_name": "الوردية",
    "name": "الوردية",
    "name_en": "Al-Wardia",
    "state_id": 188,
    "order": 25,
    "order_en": 19,
    "status" :1,
    "cost" :50
  },
  {
    "id": 13066,
    "cities_id": 18,
    "url_name": "الثورة",
    "name": "الثورة",
    "name_en": "Al-Thawra",
    "state_id": 188,
    "order": 26,
    "order_en": 18,
    "status" :1,
    "cost" :50
  },
  {
    "id": 14899,
    "cities_id": 36,
    "url_name": "أخرى",
    "name": "أخرى",
    "name_en": "Other",
    "state_id": 188,
    "order": 36,
    "order_en": 36,
    "status" :1,
    "cost" :50
  },
  {
    "id": 10523,
    "cities_id": 17,
    "url_name": "الزوراء",
    "name": "الزوراء",
    "name_en": "Al Zawraa",
    "state_id": 190,
    "order": 9299,
    "order_en": 17,
    "status" :1,
    "cost" :50
  },
  {
    "id": 10525,
    "cities_id": 10,
    "url_name": "الرشيد",
    "name": "الرشيد",
    "name_en": "Al Rashid",
    "state_id": 190,
    "order": 9300,
    "order_en": 10,
    "status" :1,
    "cost" :50
  },
  {
    "id": 10527,
    "cities_id": 53,
    "url_name": "واحد-آذار",
    "name": "واحد آذار",
    "name_en": "One March",
    "state_id": 190,
    "order": 9301,
    "order_en": 53,
    "status" :1,
    "cost" :50
  },
  {
    "id": 10529,
    "cities_id": 52,
    "url_name": "واحد-حزيران",
    "name": "واحد حزيران",
    "name_en": "One June",
    "state_id": 190,
    "order": 9302,
    "order_en": 52,
    "status" :1,
    "cost" :50
  },
  {
    "id": 10533,
    "cities_id": 16,
    "url_name": "الواسطي",
    "name": "الواسطي",
    "name_en": "Al Wasta",
    "state_id": 190,
    "order": 9304,
    "order_en": 16,
    "status" :1,
    "cost" :50
  },
  {
    "id": 10537,
    "cities_id": 14,
    "url_name": "الأسرى-والمفقودين",
    "name": "الأسرى والمفقودين",
    "name_en": "Al Usra w Al Mafqudin",
    "state_id": 190,
    "order": 9306,
    "order_en": 14,
    "status" :1,
    "cost" :50
  },
  {
    "id": 10539,
    "cities_id": 27,
    "url_name": "العسكري",
    "name": "العسكري",
    "name_en": "Askary",
    "state_id": 190,
    "order": 9307,
    "order_en": 27,
    "status" :1,
    "cost" :50
  },
  {
    "id": 10541,
    "cities_id": 35,
    "url_name": "دوميز",
    "name": "دوميز",
    "name_en": "Domeez",
    "state_id": 190,
    "order": 9308,
    "order_en": 35,
    "status" :1,
    "cost" :50
  },
  {
    "id": 10545,
    "cities_id": 1,
    "url_name": "عدن",
    "name": "عدن",
    "name_en": "Aden",
    "state_id": 190,
    "order": 9310,
    "order_en": 1,
    "status" :1,
    "cost" :50
  },
  {
    "id": 10547,
    "cities_id": 31,
    "url_name": "باشور",
    "name": "باشور",
    "name_en": "Bashor",
    "state_id": 190,
    "order": 9311,
    "order_en": 31,
    "status" :1,
    "cost" :50
  },
  {
    "id": 10553,
    "cities_id": 47,
    "url_name": "حي-الخضراء",
    "name": "حي الخضراء",
    "name_en": "Khazraa Quarter",
    "state_id": 190,
    "order": 9314,
    "order_en": 47,
    "status" :1,
    "cost" :50
  },
  {
    "id": 10555,
    "cities_id": 3,
    "url_name": "البعث",
    "name": "البعث",
    "name_en": "Al Baath",
    "state_id": 190,
    "order": 9315,
    "order_en": 3,
    "status" :1,
    "cost" :50
  },
  {
    "id": 10557,
    "cities_id": 55,
    "url_name": "قادسية",
    "name": "قادسية",
    "name_en": "Qadisiyah",
    "state_id": 190,
    "order": 9316,
    "order_en": 55,
    "status" :1,
    "cost" :50
  },
  {
    "id": 10559,
    "cities_id": 25,
    "url_name": "النصر",
    "name": "النصر",
    "name_en": "An Nasr",
    "state_id": 190,
    "order": 9317,
    "order_en": 25,
    "status" :1,
    "cost" :50
  },
  {
    "id": 10561,
    "cities_id": 8,
    "url_name": "المعلمين",
    "name": "المعلمين",
    "name_en": "Al Mualimeen",
    "state_id": 190,
    "order": 9318,
    "order_en": 8,
    "status" :1,
    "cost" :50
  },
  {
    "id": 10563,
    "cities_id": 48,
    "url_name": "حي-المنصور",
    "name": "حي المنصور",
    "name_en": "Mansor Mahallesi",
    "state_id": 190,
    "order": 9319,
    "order_en": 48,
    "status" :1,
    "cost" :50
  },
  {
    "id": 10565,
    "cities_id": 9,
    "url_name": "العروبة",
    "name": "العروبة",
    "name_en": "Al Orouba",
    "state_id": 190,
    "order": 9320,
    "order_en": 9,
    "status" :1,
    "cost" :50
  },
  {
    "id": 10567,
    "cities_id": 38,
    "url_name": "غرناطة",
    "name": "غرناطة",
    "name_en": "Ghirnatah",
    "state_id": 190,
    "order": 9321,
    "order_en": 38,
    "status" :1,
    "cost" :50
  },
  {
    "id": 10569,
    "cities_id": 64,
    "url_name": "تسعين",
    "name": "تسعين",
    "name_en": "Tisin",
    "state_id": 190,
    "order": 9322,
    "order_en": 64,
    "status" :1,
    "cost" :50
  },
  {
    "id": 10571,
    "cities_id": 36,
    "url_name": "فيلق",
    "name": "فيلق",
    "name_en": "Feliq",
    "state_id": 190,
    "order": 9323,
    "order_en": 36,
    "status" :1,
    "cost" :50
  },
  {
    "id": 10573,
    "cities_id": 39,
    "url_name": "الحجاج",
    "name": "الحجاج",
    "name_en": "Hajjaj",
    "state_id": 190,
    "order": 9324,
    "order_en": 39,
    "status" :1,
    "cost" :50
  },
  {
    "id": 10575,
    "cities_id": 15,
    "url_name": "الوحدة",
    "name": "الوحدة",
    "name_en": "Al Wahda",
    "state_id": 190,
    "order": 9325,
    "order_en": 15,
    "status" :1,
    "cost" :50
  },
  {
    "id": 10577,
    "cities_id": 13,
    "url_name": "العلماء",
    "name": "العلماء",
    "name_en": "Al Ulamaa",
    "state_id": 190,
    "order": 9326,
    "order_en": 13,
    "status" :1,
    "cost" :50
  },
  {
    "id": 10579,
    "cities_id": 58,
    "url_name": "قتيبة",
    "name": "قتيبة",
    "name_en": "Quteba",
    "state_id": 190,
    "order": 9327,
    "order_en": 58,
    "status" :1,
    "cost" :50
  },
  {
    "id": 10585,
    "cities_id": 43,
    "url_name": "الحرية",
    "name": "الحرية",
    "name_en": "Hurriya",
    "state_id": 190,
    "order": 9330,
    "order_en": 43,
    "status" :1,
    "cost" :50
  },
  {
    "id": 10587,
    "cities_id": 51,
    "url_name": "المصلى",
    "name": "المصلى",
    "name_en": "Musalla",
    "state_id": 190,
    "order": 9331,
    "order_en": 51,
    "status" :1,
    "cost" :50
  },
  {
    "id": 10589,
    "cities_id": 56,
    "url_name": "قورية",
    "name": "قورية",
    "name_en": "Qorya",
    "state_id": 190,
    "order": 9332,
    "order_en": 56,
    "status" :1,
    "cost" :50
  },
  {
    "id": 10591,
    "cities_id": 26,
    "url_name": "عرفة",
    "name": "عرفة",
    "name_en": "Arafa",
    "state_id": 190,
    "order": 9333,
    "order_en": 26,
    "status" :1,
    "cost" :50
  },
  {
    "id": 10593,
    "cities_id": 29,
    "url_name": "بكلر",
    "name": "بكلر",
    "name_en": "Baglar",
    "state_id": 190,
    "order": 9334,
    "order_en": 29,
    "status" :1,
    "cost" :50
  },
  {
    "id": 10597,
    "cities_id": 44,
    "url_name": "امام-قاسم",
    "name": "امام قاسم",
    "name_en": "Imam Qasim",
    "state_id": 190,
    "order": 9336,
    "order_en": 44,
    "status" :1,
    "cost" :50
  },
  {
    "id": 10599,
    "cities_id": 45,
    "url_name": "الاسكان",
    "name": "الاسكان",
    "name_en": "Iskan",
    "state_id": 190,
    "order": 9337,
    "order_en": 45,
    "status" :1,
    "cost" :50
  },
  {
    "id": 10601,
    "cities_id": 33,
    "url_name": "دروزة",
    "name": "دروزة",
    "name_en": "Darwaza",
    "state_id": 190,
    "order": 9338,
    "order_en": 33,
    "status" :1,
    "cost" :50
  },
  {
    "id": 10605,
    "cities_id": 5,
    "url_name": "الجمهورية",
    "name": "الجمهورية",
    "name_en": "Al Jamhoria",
    "state_id": 190,
    "order": 9340,
    "order_en": 5,
    "status" :1,
    "cost" :50
  },
  {
    "id": 10607,
    "cities_id": 46,
    "url_name": "القصابين",
    "name": "القصابين",
    "name_en": "Kasab",
    "state_id": 190,
    "order": 9341,
    "order_en": 46,
    "status" :1,
    "cost" :50
  },
  {
    "id": 10609,
    "cities_id": 37,
    "url_name": "القادسية-الاولى",
    "name": "القادسية الاولى",
    "name_en": "First Qadisiyyah",
    "state_id": 190,
    "order": 9342,
    "order_en": 37,
    "status" :1,
    "cost" :50
  },
  {
    "id": 10611,
    "cities_id": 11,
    "url_name": "الشهداء",
    "name": "الشهداء",
    "name_en": "Al Shuhadaa",
    "state_id": 190,
    "order": 9343,
    "order_en": 11,
    "status" :1,
    "cost" :50
  },
  {
    "id": 10613,
    "cities_id": 59,
    "url_name": "رحيم-ئاوه",
    "name": "رحيم ئاوه",
    "name_en": "Raheemawa",
    "state_id": 190,
    "order": 9344,
    "order_en": 59,
    "status" :1,
    "cost" :50
  },
  {
    "id": 10619,
    "cities_id": 34,
    "url_name": "الضباط",
    "name": "الضباط",
    "name_en": "Dhubat",
    "state_id": 190,
    "order": 9347,
    "order_en": 34,
    "status" :1,
    "cost" :50
  },
  {
    "id": 10621,
    "cities_id": 54,
    "url_name": "بريادي",
    "name": "بريادي",
    "name_en": "Piryadi",
    "state_id": 190,
    "order": 9348,
    "order_en": 54,
    "status" :1,
    "cost" :50
  },
  {
    "id": 10623,
    "cities_id": 62,
    "url_name": "الشورجة",
    "name": "الشورجة",
    "name_en": "Shorjah",
    "state_id": 190,
    "order": 9349,
    "order_en": 62,
    "status" :1,
    "cost" :50
  },
  {
    "id": 10625,
    "cities_id": 60,
    "url_name": "شاطرلو",
    "name": "شاطرلو",
    "name_en": "Shatarlu",
    "state_id": 190,
    "order": 9350,
    "order_en": 60,
    "status" :1,
    "cost" :50
  },
  {
    "id": 10627,
    "cities_id": 2,
    "url_name": "احمد-آغا",
    "name": "احمد آغا",
    "name_en": "Ahmed Agha",
    "state_id": 190,
    "order": 9351,
    "order_en": 2,
    "status" :1,
    "cost" :50
  },
  {
    "id": 10629,
    "cities_id": 6,
    "url_name": "الماس",
    "name": "الماس",
    "name_en": "Al Mas",
    "state_id": 190,
    "order": 9352,
    "order_en": 6,
    "status" :1,
    "cost" :50
  },
  {
    "id": 10631,
    "cities_id": 57,
    "url_name": "القلعة",
    "name": "القلعة",
    "name_en": "Qulah",
    "state_id": 190,
    "order": 9353,
    "order_en": 57,
    "status" :1,
    "cost" :50
  },
  {
    "id": 10633,
    "cities_id": 63,
    "url_name": "ساحة-طيران",
    "name": "ساحة طيران",
    "name_en": "Tayaran Roundabout",
    "state_id": 190,
    "order": 9354,
    "order_en": 63,
    "status" :1,
    "cost" :50
  },
  {
    "id": 10635,
    "cities_id": 40,
    "url_name": "حمزه-لي",
    "name": "حمزه لي",
    "name_en": "Hamza Lee",
    "state_id": 190,
    "order": 9355,
    "order_en": 40,
    "status" :1,
    "cost" :50
  },
  {
    "id": 10637,
    "cities_id": 28,
    "url_name": "ئازادى",
    "name": "ئازادى",
    "name_en": "Azadi",
    "state_id": 190,
    "order": 9356,
    "order_en": 28,
    "status" :1,
    "cost" :50
  },
  {
    "id": 10639,
    "cities_id": 32,
    "url_name": "الكورنيش",
    "name": "الكورنيش",
    "name_en": "Corniche",
    "state_id": 190,
    "order": 9357,
    "order_en": 32,
    "status" :1,
    "cost" :50
  },
  {
    "id": 12796,
    "cities_id": 61,
    "url_name": "شوراو",
    "name": "شوراو",
    "name_en": "Shoraw",
    "state_id": 190,
    "order": 9358,
    "order_en": 61,
    "status" :1,
    "cost" :50
  },
  {
    "id": 12798,
    "cities_id": 41,
    "url_name": "الحويجة",
    "name": "الحويجة",
    "name_en": "Hawija",
    "state_id": 190,
    "order": 9359,
    "order_en": 41,
    "status" :1,
    "cost" :50
  },
  {
    "id": 12800,
    "cities_id": 42,
    "url_name": "الهندية",
    "name": "الهندية",
    "name_en": "Hindiyah",
    "state_id": 190,
    "order": 9360,
    "order_en": 42,
    "status" :1,
    "cost" :50
  },
  {
    "id": 12802,
    "cities_id": 23,
    "url_name": "حي-الرسالة",
    "name": "حي الرسالة",
    "name_en": "Al-Risalah",
    "state_id": 190,
    "order": 9361,
    "order_en": 23,
    "status" :1,
    "cost" :50
  },
  {
    "id": 12804,
    "cities_id": 50,
    "url_name": "حي-الموظفين",
    "name": "حي الموظفين",
    "name_en": "Mouathafeen",
    "state_id": 190,
    "order": 9362,
    "order_en": 50,
    "status" :1,
    "cost" :50
  },
  {
    "id": 12806,
    "cities_id": 49,
    "url_name": "حي-المدراء",
    "name": "حي المدراء",
    "name_en": "Modara'a",
    "state_id": 190,
    "order": 9363,
    "order_en": 49,
    "status" :1,
    "cost" :50
  },
  {
    "id": 12808,
    "cities_id": 18,
    "url_name": "حي-العباس",
    "name": "حي العباس",
    "name_en": "Al-Abbas",
    "state_id": 190,
    "order": 9364,
    "order_en": 18,
    "status" :1,
    "cost" :50
  },
  {
    "id": 12810,
    "cities_id": 24,
    "url_name": "حي-السلام",
    "name": "حي السلام",
    "name_en": "Al-Salam",
    "state_id": 190,
    "order": 9365,
    "order_en": 24,
    "status" :1,
    "cost" :50
  },
  {
    "id": 12812,
    "cities_id": 19,
    "url_name": "حي-الاطباء",
    "name": "حي الاطباء",
    "name_en": "Al-Atiba'a",
    "state_id": 190,
    "order": 9366,
    "order_en": 19,
    "status" :1,
    "cost" :50
  },
  {
    "id": 12814,
    "cities_id": 21,
    "url_name": "حي-الحر",
    "name": "حي الحر",
    "name_en": "Al-Hur",
    "state_id": 190,
    "order": 9367,
    "order_en": 21,
    "status" :1,
    "cost" :50
  },
  {
    "id": 12816,
    "cities_id": 7,
    "url_name": "حي-المؤمنين",
    "name": "حي المؤمنين",
    "name_en": "Al Momineen",
    "state_id": 190,
    "order": 9368,
    "order_en": 7,
    "status" :1,
    "cost" :50
  },
  {
    "id": 12818,
    "cities_id": 12,
    "url_name": "حي-التحدي",
    "name": "حي التحدي",
    "name_en": "Al Tahadi",
    "state_id": 190,
    "order": 9369,
    "order_en": 12,
    "status" :1,
    "cost" :50
  },
  {
    "id": 12820,
    "cities_id": 4,
    "url_name": "حي-البلدية",
    "name": "حي البلدية",
    "name_en": "Al Baladiya",
    "state_id": 190,
    "order": 9370,
    "order_en": 4,
    "status" :1,
    "cost" :50
  },
  {
    "id": 12828,
    "cities_id": 20,
    "url_name": "البناء-الجاهز",
    "name": "البناء الجاهز",
    "name_en": "Al-Bina'a Al-Jahiz",
    "state_id": 190,
    "order": 9371,
    "order_en": 20,
    "status" :1,
    "cost" :50
  },
  {
    "id": 12830,
    "cities_id": 22,
    "url_name": "الإبراهيمية",
    "name": "الإبراهيمية",
    "name_en": "Al-Ibrahimia",
    "state_id": 190,
    "order": 9372,
    "order_en": 22,
    "status" :1,
    "cost" :50
  },
  {
    "id": 15558,
    "cities_id": 30,
    "url_name": "بجركي-دوميز",
    "name": "بجركي دوميز",
    "name_en": "Bajerke Dumez",
    "state_id": 190,
    "order": 9374,
    "order_en": 30,
    "status" :1,
    "cost" :50
  },
  {
    "id": 14900,
    "cities_id": 9383,
    "url_name": "أخرى",
    "name": "أخرى",
    "name_en": "Other",
    "state_id": 190,
    "order": 9383,
    "order_en": 9383,
    "status" :1,
    "cost" :50
  },

  {
    "id": 12912,
    "cities_id": 2,
    "url_name": "ماسيكي",
    "name": "ماسيكي",
    "name_en": "Maaseik",
    "state_id": 192,
    "order": 1,
    "order_en": 2,
    "status" :1,
    "cost" :50
  },
  {
    "id": 15542,
    "cities_id": 1,
    "url_name": "شارع-اماد",
    "name": "شارع اماد",
    "name_en": "Amad St",
    "state_id": 192,
    "order": 3,
    "order_en": 1,
    "status" :1,
    "cost" :50
  },
  {
    "id": 14901,
    "cities_id": 12,
    "url_name": "أخرى",
    "name": "أخرى",
    "name_en": "Other",
    "state_id": 192,
    "order": 12,
    "order_en": 12,
    "status" :1,
    "cost" :50
  },
  {
    "id": 12894,
    "cities_id": 5,
    "url_name": "خالص",
    "name": "خالص",
    "name_en": "Khalis",
    "state_id": 194,
    "order": 1,
    "order_en": 5,
    "status" :1,
    "cost" :50
  },
  {
    "id": 12896,
    "cities_id": 3,
    "url_name": "الحويش",
    "name": "الحويش",
    "name_en": "Hauesh",
    "state_id": 194,
    "order": 2,
    "order_en": 3,
    "status" :1,
    "cost" :50
  },
  {
    "id": 12898,
    "cities_id": 8,
    "url_name": "المقدادية",
    "name": "المقدادية",
    "name_en": "Miqdadiyah",
    "state_id": 194,
    "order": 3,
    "order_en": 8,
    "status" :1,
    "cost" :50
  },
  {
    "id": 12900,
    "cities_id": 2,
    "url_name": "بعقوبة",
    "name": "بعقوبة",
    "name_en": "Baqubah",
    "state_id": 194,
    "order": 4,
    "order_en": 2,
    "status" :1,
    "cost" :50
  },
  {
    "id": 12902,
    "cities_id": 1,
    "url_name": "جديدة-الشط",
    "name": "جديدة الشط",
    "name_en": "Aljededa alShat",
    "state_id": 194,
    "order": 5,
    "order_en": 1,
    "status" :1,
    "cost" :50
  },
  {
    "id": 12904,
    "cities_id": 4,
    "url_name": "جلولة",
    "name": "جلولة",
    "name_en": "Jalawla",
    "state_id": 194,
    "order": 6,
    "order_en": 4,
    "status" :1,
    "cost" :50
  },
  {
    "id": 12906,
    "cities_id": 6,
    "url_name": "خان-بني-سعد",
    "name": "خان بني سعد",
    "name_en": "Khan Bani Saad",
    "state_id": 194,
    "order": 7,
    "order_en": 6,
    "status" :1,
    "cost" :50
  },
  {
    "id": 12908,
    "cities_id": 7,
    "url_name": "خناقين",
    "name": "خناقين",
    "name_en": "Khanaqin",
    "state_id": 194,
    "order": 8,
    "order_en": 7,
    "status" :1,
    "cost" :50
  },
  {
    "id": 12910,
    "cities_id": 9,
    "url_name": "شفتة",
    "name": "شفتة",
    "name_en": "Shafta",
    "state_id": 194,
    "order": 9,
    "order_en": 9,
    "status" :1,
    "cost" :50
  },
  {
    "id": 14902,
    "cities_id": 19,
    "url_name": "أخرى",
    "name": "أخرى",
    "name_en": "Other",
    "state_id": 194,
    "order": 19,
    "order_en": 19,
    "status" :1,
    "cost" :50
  },

  {
    "id": 12824,
    "cities_id": 12,
    "url_name": "الناصريه",
    "name": "الناصريه",
    "name_en": "Al-Nasriya",
    "state_id": 196,
    "order": 1,
    "order_en": 12,
    "status" :1,
    "cost" :50
  },
  {
    "id": 12844,
    "cities_id": 9,
    "url_name": "الإسكان-الصناعي",
    "name": "الإسكان الصناعي",
    "name_en": "Al-Iskan Al-Sina'i",
    "state_id": 196,
    "order": 2,
    "order_en": 9,
    "status" :1,
    "cost" :50
  },
  {
    "id": 12846,
    "cities_id": 5,
    "url_name": "الشموخ",
    "name": "الشموخ",
    "name_en": "Al Shmoukh",
    "state_id": 196,
    "order": 3,
    "order_en": 5,
    "status" :1,
    "cost" :50
  },
  {
    "id": 12848,
    "cities_id": 4,
    "url_name": "الشعلة",
    "name": "الشعلة",
    "name_en": "Al Shaala",
    "state_id": 196,
    "order": 4,
    "order_en": 4,
    "status" :1,
    "cost" :50
  },
  {
    "id": 12850,
    "cities_id": 19,
    "url_name": "الإسكان",
    "name": "الإسكان",
    "name_en": "Iskan",
    "state_id": 196,
    "order": 5,
    "order_en": 19,
    "status" :1,
    "cost" :50
  },
  {
    "id": 12852,
    "cities_id": 25,
    "url_name": "الثورة",
    "name": "الثورة",
    "name_en": "Thawra",
    "state_id": 196,
    "order": 6,
    "order_en": 25,
    "status" :1,
    "cost" :50
  },
  {
    "id": 12854,
    "cities_id": 10,
    "url_name": "المنصورية",
    "name": "المنصورية",
    "name_en": "Al-Mansouria",
    "state_id": 196,
    "order": 7,
    "order_en": 10,
    "status" :1,
    "cost" :50
  },
  {
    "id": 12856,
    "cities_id": 15,
    "url_name": "التضحية",
    "name": "التضحية",
    "name_en": "All-Tadhia",
    "state_id": 196,
    "order": 8,
    "order_en": 15,
    "status" :1,
    "cost" :50
  },
  {
    "id": 12858,
    "cities_id": 14,
    "url_name": "الصالحية",
    "name": "الصالحية",
    "name_en": "AlSalihya",
    "state_id": 196,
    "order": 9,
    "order_en": 14,
    "status" :1,
    "cost" :50
  },
  {
    "id": 12860,
    "cities_id": 6,
    "url_name": "العسكري",
    "name": "العسكري",
    "name_en": "Al-Askary",
    "state_id": 196,
    "order": 10,
    "order_en": 6,
    "status" :1,
    "cost" :50
  },
  {
    "id": 12862,
    "cities_id": 13,
    "url_name": "الشهداء",
    "name": "الشهداء",
    "name_en": "Al-Shohadaa",
    "state_id": 196,
    "order": 11,
    "order_en": 13,
    "status" :1,
    "cost" :50
  },
  {
    "id": 12864,
    "cities_id": 16,
    "url_name": "اريدو",
    "name": "اريدو",
    "name_en": "Arido",
    "state_id": 196,
    "order": 12,
    "order_en": 16,
    "status" :1,
    "cost" :50
  },
  {
    "id": 12866,
    "cities_id": 3,
    "url_name": "الصدر",
    "name": "الصدر",
    "name_en": "Al Sadder",
    "state_id": 196,
    "order": 13,
    "order_en": 3,
    "status" :1,
    "cost" :50
  },
  {
    "id": 12868,
    "cities_id": 26,
    "url_name": "أور",
    "name": "أور",
    "name_en": "Ur",
    "state_id": 196,
    "order": 14,
    "order_en": 26,
    "status" :1,
    "cost" :50
  },
  {
    "id": 12870,
    "cities_id": 23,
    "url_name": "سومر",
    "name": "سومر",
    "name_en": "Sumer",
    "state_id": 196,
    "order": 15,
    "order_en": 23,
    "status" :1,
    "cost" :50
  },
  {
    "id": 12872,
    "cities_id": 1,
    "url_name": "البشائر",
    "name": "البشائر",
    "name_en": "Al Bashaer",
    "state_id": 196,
    "order": 16,
    "order_en": 1,
    "status" :1,
    "cost" :50
  },
  {
    "id": 12874,
    "cities_id": 21,
    "url_name": "رفاعي",
    "name": "رفاعي",
    "name_en": "Rifai",
    "state_id": 196,
    "order": 17,
    "order_en": 21,
    "status" :1,
    "cost" :50
  },
  {
    "id": 12876,
    "cities_id": 27,
    "url_name": "منطقه-الزاويه",
    "name": "منطقه الزاويه",
    "name_en": "Zawiah",
    "state_id": 196,
    "order": 18,
    "order_en": 27,
    "status" :1,
    "cost" :50
  },
  {
    "id": 12878,
    "cities_id": 18,
    "url_name": "الشرقية",
    "name": "الشرقية",
    "name_en": "Eastern",
    "state_id": 196,
    "order": 19,
    "order_en": 18,
    "status" :1,
    "cost" :50
  },
  {
    "id": 12880,
    "cities_id": 22,
    "url_name": "الشطرة",
    "name": "الشطرة",
    "name_en": "Shatrah",
    "state_id": 196,
    "order": 20,
    "order_en": 22,
    "status" :1,
    "cost" :50
  },
  {
    "id": 12882,
    "cities_id": 8,
    "url_name": "الفداء",
    "name": "الفداء",
    "name_en": "Al-Fida'a",
    "state_id": 196,
    "order": 21,
    "order_en": 8,
    "status" :1,
    "cost" :50
  },
  {
    "id": 12884,
    "cities_id": 7,
    "url_name": "الفضلية",
    "name": "الفضلية",
    "name_en": "Al-Fadlia",
    "state_id": 196,
    "order": 22,
    "order_en": 7,
    "status" :1,
    "cost" :50
  },
  {
    "id": 12886,
    "cities_id": 2,
    "url_name": "الحسين",
    "name": "الحسين",
    "name_en": "Al Hussein",
    "state_id": 196,
    "order": 23,
    "order_en": 2,
    "status" :1,
    "cost" :50
  },
  {
    "id": 12888,
    "cities_id": 11,
    "url_name": "حي-المعلمين",
    "name": "حي المعلمين",
    "name_en": "Al-Moualimin",
    "state_id": 196,
    "order": 24,
    "order_en": 11,
    "status" :1,
    "cost" :50
  },
  {
    "id": 12890,
    "cities_id": 20,
    "url_name": "خفاجة",
    "name": "خفاجة",
    "name_en": "Khafajah",
    "state_id": 196,
    "order": 25,
    "order_en": 20,
    "status" :1,
    "cost" :50
  },
  {
    "id": 12892,
    "cities_id": 24,
    "url_name": "سوق-الشيوخ",
    "name": "سوق الشيوخ",
    "name_en": "Suq Al-Shuyukh",
    "state_id": 196,
    "order": 26,
    "order_en": 24,
    "status" :1,
    "cost" :50
  },
  {
    "id": 15199,
    "cities_id": 17,
    "url_name": "الجبايش",
    "name": "الجبايش",
    "name_en": "Chibayish",
    "state_id": 196,
    "order": 28,
    "order_en": 17,
    "status" :1,
    "cost" :50
  },
  {
    "id": 14903,
    "cities_id": 37,
    "url_name": "أخرى",
    "name": "أخرى",
    "name_en": "Other",
    "state_id": 196,
    "order": 37,
    "order_en": 37,
    "status" :1,
    "cost" :50
  },

  {
    "id": 13102,
    "cities_id": 1,
    "url_name": "عفك",
    "name": "عفك",
    "name_en": "Afak",
    "state_id": 202,
    "order": 1,
    "order_en": 1,
    "status" :1,
    "cost" :50
  },
  {
    "id": 13104,
    "cities_id": 7,
    "url_name": "الدغارة",
    "name": "الدغارة",
    "name_en": "Dagharah",
    "state_id": 202,
    "order": 2,
    "order_en": 7,
    "status" :1,
    "cost" :50
  },
  {
    "id": 13106,
    "cities_id": 3,
    "url_name": "حي-العسكري",
    "name": "حي العسكري",
    "name_en": "Al-Askari",
    "state_id": 202,
    "order": 3,
    "order_en": 3,
    "status" :1,
    "cost" :50
  },
  {
    "id": 13108,
    "cities_id": 8,
    "url_name": "أم-الخيل",
    "name": "أم الخيل",
    "name_en": "Um Al-Khail",
    "state_id": 202,
    "order": 4,
    "order_en": 8,
    "status" :1,
    "cost" :50
  },
  {
    "id": 13110,
    "cities_id": 5,
    "url_name": "الديوانية",
    "name": "الديوانية",
    "name_en": "Al-Diwaniyah",
    "state_id": 202,
    "order": 5,
    "order_en": 5,
    "status" :1,
    "cost" :50
  },
  {
    "id": 13168,
    "cities_id": 6,
    "url_name": "الحمزة",
    "name": "الحمزة",
    "name_en": "Al-Hamzah",
    "state_id": 202,
    "order": 6,
    "order_en": 6,
    "status" :1,
    "cost" :50
  },
  {
    "id": 13170,
    "cities_id": 4,
    "url_name": "البدير",
    "name": "البدير",
    "name_en": "Al-Budayr",
    "state_id": 202,
    "order": 7,
    "order_en": 4,
    "status" :1,
    "cost" :50
  },
  {
    "id": 15562,
    "cities_id": 2,
    "url_name": "العروبة",
    "name": "العروبة",
    "name_en": "Al Orooba",
    "state_id": 202,
    "order": 9,
    "order_en": 2,
    "status" :1,
    "cost" :50
  },
  {
    "id": 14904,
    "cities_id": 18,
    "url_name": "أخرى",
    "name": "أخرى",
    "name_en": "Other",
    "state_id": 202,
    "order": 18,
    "order_en": 18,
    "status" :1,
    "cost" :50
  },

  {
    "id": 13096,
    "cities_id": 3,
    "url_name": "السماوة",
    "name": "السماوة",
    "name_en": "Samawah",
    "state_id": 204,
    "order": 1,
    "order_en": 3,
    "status" :1,
    "cost" :50
  },
  {
    "id": 13098,
    "cities_id": 2,
    "url_name": "حي-السكك",
    "name": "حي السكك",
    "name_en": "Al-Sikak",
    "state_id": 204,
    "order": 2,
    "order_en": 2,
    "status" :1,
    "cost" :50
  },
  {
    "id": 13100,
    "cities_id": 1,
    "url_name": "حي-العسكري",
    "name": "حي العسكري",
    "name_en": "Al-Askari",
    "state_id": 204,
    "order": 3,
    "order_en": 1,
    "status" :1,
    "cost" :50
  },
  {
    "id": 14905,
    "cities_id": 13,
    "url_name": "أخرى",
    "name": "أخرى",
    "name_en": "Other",
    "state_id": 204,
    "order": 13,
    "order_en": 13,
    "status" :1,
    "cost" :50
  },

  {
    "id": 12784,
    "cities_id": 1,
    "url_name": "الجمعيات",
    "name": "الجمعيات",
    "name_en": "Al-Jam'iat",
    "state_id": 206,
    "order": 1,
    "order_en": 1,
    "status" :1,
    "cost" :50
  },
  {
    "id": 12786,
    "cities_id": 6,
    "url_name": "قلعة-صالح",
    "name": "قلعة صالح",
    "name_en": "Qal'at Saleh",
    "state_id": 206,
    "order": 2,
    "order_en": 6,
    "status" :1,
    "cost" :50
  },
  {
    "id": 12788,
    "cities_id": 2,
    "url_name": "علي-الغربي",
    "name": "علي الغربي",
    "name_en": "Ali Al-Garbi",
    "state_id": 206,
    "order": 3,
    "order_en": 2,
    "status" :1,
    "cost" :50
  },
  {
    "id": 12790,
    "cities_id": 4,
    "url_name": "دور-النفط",
    "name": "دور النفط",
    "name_en": "Dur Al-Naft",
    "state_id": 206,
    "order": 4,
    "order_en": 4,
    "status" :1,
    "cost" :50
  },
  {
    "id": 12792,
    "cities_id": 3,
    "url_name": "العماره",
    "name": "العماره",
    "name_en": "Amarah",
    "state_id": 206,
    "order": 5,
    "order_en": 3,
    "status" :1,
    "cost" :50
  },
  {
    "id": 12794,
    "cities_id": 5,
    "url_name": "المجرالكبير",
    "name": "المجرالكبير",
    "name_en": "Majar Al-Kabir",
    "state_id": 206,
    "order": 6,
    "order_en": 5,
    "status" :1,
    "cost" :50
  },
  {
    "id": 14906,
    "cities_id": 16,
    "url_name": "أخرى",
    "name": "أخرى",
    "name_en": "Other",
    "state_id": 206,
    "order": 16,
    "order_en": 16,
    "status" :1,
    "cost" :50
  },
  {
    "id": 12772,
    "cities_id": 2,
    "url_name": "الكوت",
    "name": "الكوت",
    "name_en": "Kut",
    "state_id": 208,
    "order": 1,
    "order_en": 2,
    "status" :1,
    "cost" :50
  },
  {
    "id": 12774,
    "cities_id": 1,
    "url_name": "العزيزية",
    "name": "العزيزية",
    "name_en": "Aziziyah",
    "state_id": 208,
    "order": 2,
    "order_en": 1,
    "status" :1,
    "cost" :50
  },
  {
    "id": 12776,
    "cities_id": 5,
    "url_name": "الشيخ-سعد",
    "name": "الشيخ سعد",
    "name_en": "Shayk Sa'd",
    "state_id": 208,
    "order": 3,
    "order_en": 5,
    "status" :1,
    "cost" :50
  },
  {
    "id": 12778,
    "cities_id": 6,
    "url_name": "الصويرة",
    "name": "الصويرة",
    "name_en": "Suwayrah",
    "state_id": 208,
    "order": 4,
    "order_en": 6,
    "status" :1,
    "cost" :50
  },
  {
    "id": 12780,
    "cities_id": 4,
    "url_name": "النعمانية",
    "name": "النعمانية",
    "name_en": "Numaniyah",
    "state_id": 208,
    "order": 5,
    "order_en": 4,
    "status" :1,
    "cost" :50
  },
  {
    "id": 12782,
    "cities_id": 3,
    "url_name": "العزة-الجديدة",
    "name": "العزة الجديدة",
    "name_en": "New Ezza",
    "state_id": 208,
    "order": 6,
    "order_en": 3,
    "status" :1,
    "cost" :50
  },
  {
    "id": 14907,
    "cities_id": 16,
    "url_name": "أخرى",
    "name": "أخرى",
    "name_en": "Other",
    "state_id": 208,
    "order": 16,
    "order_en": 16
  }
]